eventid,iyear,imonth,iday,country,country_txt,region_txt,provstate,city,latitude,longitude,summary,crit1,crit2,crit3,doubtterr,success,suicide,attacktype1_txt,attacktype2_txt,attacktype3_txt,targtype1_txt,targsubtype1_txt,natlty1_txt,gname,motive,nperps,nperpcap,claimed,weaptype1_txt,weaptype2_txt,weapdetail,nkill,nkillter,nwound,propextent_txt,nhostkid
-262442869,2016,1,2,217,United States,North America,Oregon,Princeton,43.265841,-118.844083,"01/02/2016: At least 12 armed assailants seized the Malheur National Wildlife Refuge headquarters in Princeton, Oregon, United States. On January 26, 2016, a leader of the group was killed, Ryan Bundy was wounded, and seven leaders, including Ammon and Ryan Bundy, were arrested in a confrontation with authorities approximately 45 miles away from the refuge. The last four assailants at the refuge were arrested on February 11, 2016. Citizens for Constitutional Freedom claimed responsibility for the incident and demanded that federal grounds be returned to the ranchers of Harney County. The group also stated that the occupation was carried out in protest to the five year sentence of Dwight and Steven Hammond, two ranchers convicted of arson of federal land.",1,1,1,0.0,1.0,0.0,Facility/Infrastructure Attack,,,Government (General),Government Building/Facility/Office,United States,Citizens for Constitutional Freedom,"Citizens for Constitutional Freedom claimed responsibility for the incident and demanded that federal grounds be returned to the ranchers of Harney County. The group also stated that the occupation was carried out in protest to the five year sentence of Dwight and Steven Hammond, two ranchers convicted of arson of federal land.",12.0,11.0,1.0,Firearms,Firearms,"AR-15 automatic rifles and other assault weapons, pistols, rifles, and shotguns were used in the attack.",0.0,0.0,0.0,,
-262392888,2016,1,7,217,United States,North America,Pennsylvania,Philadelphia,40.008171,-75.13549,"01/07/2016: An assailant shot and injured police officer Jesse Hartnett in Philadelphia, Pennsylvania, United States. Hartnett returned fire and injured the assailant as he attempted to flee. The assailant, identified as Edward Archer, stated that he carried out the attack ""in the name of Islam."" Archer also pledged allegiance to the Islamic State of Iraq and the Levant (ISIL).",1,1,1,0.0,1.0,0.0,Armed Assault,,,Police,Police Security Forces/Officers,United States,Jihadi-inspired extremists,"An unaffiliated individual, identified as Edward Archer, claimed responsibility for the incident and stated that he carried out the attack ""in the name of Islam."" Archer also pledged allegiance to the Islamic State of Iraq and the Levant (ISIL).",1.0,1.0,1.0,Firearms,,A semiautomatic pistol was used in the attack.,0.0,0.0,2.0,Minor (likely < $1 million),
-262312872,2016,1,15,217,United States,North America,New York,New York City,40.697132,-73.931351,"01/15/2016: Assailants attacked a Muslim civilian from Bangladesh in Bronx, New York City, United States. The civilian was injured in the assault. No group claimed responsibility; however, sources noted that the two assailants shouted ""ISIS, ISIS"" at the victim during the attack.",1,1,1,0.0,1.0,0.0,Unarmed Assault,,,Private Citizens & Property,Religion Identified,Bangladesh,Anti-Muslim extremists,"The specific motive is unknown; however, sources noted that the assailants yelled, ""ISIS, ISIS"" throughout the attack.",2.0,2.0,0.0,Melee,,,0.0,0.0,1.0,,
-261352889,2016,2,11,217,United States,North America,Ohio,Columbus,40.064024,-82.863818,"02/11/2016: A machete-wielding assailant attacked and wounded four people in Nazareth Restaurant & Deli in Columbus, Ohio, United States. Police shot and killed the assailant after he fled the restaurant. No group claimed responsibility for the incident; however sources identified the assailant as Mohamed Barry, who shouted ""Allahu Akbar"" immediately before the attack.",1,1,1,0.0,1.0,0.0,Armed Assault,,,Business,Restaurant/Bar/CafÃ©,United States,Muslim extremists,,1.0,0.0,0.0,Melee,,A machete was used in the attack.,1.0,1.0,4.0,,
-261282849,2016,2,18,217,United States,North America,Indiana,Nashville,39.207489,-86.246998,"02/18/2016: An assailant armed with a hatchet attacked Zhang Yue, an 18-year-old Chinese exchange student, in Nashville, Indiana, United States. Yue was injured in the assault. Authorities arrested Dana Ericson, who confessed to the attack, self-identified as a white supremacist, and indicated that his goal was ethnic cleansing. In court Ericson stated that he was ""trying to start a revolution.""",1,1,1,1.0,1.0,0.0,Armed Assault,,,Private Citizens & Property,Race/Ethnicity Identified,China,White extremists,"An unaffiliated individual, identified as Dana Ericson, claimed responsibility for the incident and stated that he targeted Zhang Yue because she was Asian and that he intended to carry out ""ethnic cleansing.""",1.0,1.0,1.0,Melee,,A hatchet was used in the attack.,0.0,0.0,1.0,,
-261182843,2016,2,28,217,United States,North America,California,Lake Los Angeles,34.605975,-117.829953,"02/28/2016: Three assailants armed with knives attacked a group of Hispanic teenagers playing soccer at Stephen Sorensen Park in Lake Los Angeles, California, United States. At least two people suffered minor injuries in the assault. The three assailants, identified as Ian Justine Plankey, Richard Lawrence Daulton, and Kevin Matthew Stewart, were arrested following the incident. During the attack, they shouted white supremacist statements and racial slurs, including ""Heil Hitler, AV Skins.""",1,1,1,0.0,1.0,0.0,Armed Assault,,,Private Citizens & Property,Race/Ethnicity Identified,United States,White extremists,"The specific motive is unknown; however, sources noted that the three assailants yelled ""Heil Hitler, AV skins,"" during the attack.",3.0,3.0,0.0,Melee,Melee,Knives were used in the attack.,0.0,0.0,3.0,,
-260162843,2016,3,30,217,United States,North America,Massachusetts,Tyngsborough,42.691279,-71.438679,"03/30/2016: An assailant attempted to cut and set fire to power lines in Tyngsborough, Massachusetts, United States. The power lines were not damaged but the device started a fire in the nearby bushes. Danny M. Kelly claimed responsibility for the incident and demanded change within the court system.",1,1,1,0.0,1.0,0.0,Facility/Infrastructure Attack,,,Utilities,Electricity,United States,Court Reform extremists,"An unaffiliated individual, identified as Danny M. Kelly, claimed responsibility for the incident and demanded change within the court system.",1.0,1.0,1.0,Incendiary,,Homemade incendiary devices containing thermite were used in the attack.,0.0,0.0,0.0,Minor (likely < $1 million),
-259252857,2016,4,21,217,United States,North America,Idaho,Bonners Ferry,48.684131,-116.316826,"04/21/2016: Assailants set fire to St. Ann's Catholic Church in Bonners Ferry, Idaho, United States. There were no reported casualties in the attack. No group claimed responsibility for the incident.",1,1,1,0.0,1.0,0.0,Facility/Infrastructure Attack,,,Religious Figures/Institutions,Place of Worship,United States,Unknown,,-99.0,0.0,0.0,Incendiary,,,0.0,0.0,0.0,Major (likely >= $1 million but < $1 billion),
-259202869,2016,4,26,217,United States,North America,Massachusetts,Haverhill,42.7678,-71.04865,"04/26/2016: Assailants set fire to Riverside Church in Haverhill, Massachusetts, United States. There were no reported casualties in the attack. No group claimed responsibility for the incident.",1,1,1,0.0,1.0,0.0,Facility/Infrastructure Attack,,,Religious Figures/Institutions,Place of Worship,United States,Unknown,,-99.0,0.0,0.0,Incendiary,,,0.0,0.0,0.0,Minor (likely < $1 million),
-258212857,2016,5,25,217,United States,North America,Washington,Vancouver,45.672237,-122.658793,"05/25/2016: Assailants set fire to the First Congregational Church in Vancouver, Washington, United States. There were no reported casualties in the attack. No group claimed responsibility for the incident.",1,1,1,0.0,1.0,0.0,Facility/Infrastructure Attack,,,Religious Figures/Institutions,Place of Worship,United States,Unknown,,-99.0,0.0,0.0,Incendiary,,,0.0,0.0,0.0,Major (likely >= $1 million but < $1 billion),
-258212851,2016,5,25,217,United States,North America,California,Modesto,37.664764,-120.994427,"05/25/2016: Assailants threw an incendiary device at the Planned Parenthood Modesto Heath Center in Modesto, California, United States. There were no reported casualties in the attack. No group claimed responsibility for the incident.",1,1,1,0.0,1.0,0.0,Facility/Infrastructure Attack,,,Abortion Related,Clinics,United States,Unknown,,-99.0,0.0,0.0,Incendiary,,A thrown gas can was used in the attack.,0.0,0.0,0.0,Minor (likely < $1 million),
-258202860,2016,5,26,217,United States,North America,Washington,Vancouver,45.710821,-122.635039,"05/26/2016: Assailants set fire to the Liberty Bible Church in Vancouver, Washington, United States. There were no reported casualties in the attack. No group claimed responsibility for the incident.",1,1,1,0.0,1.0,0.0,Facility/Infrastructure Attack,,,Religious Figures/Institutions,Place of Worship,United States,Unknown,,-99.0,0.0,0.0,Incendiary,,,0.0,0.0,0.0,Minor (likely < $1 million),
-257412830,2016,6,5,217,United States,North America,New York,New York City,40.697132,-73.931351,"06/05/2016: An assailant threw a Molotov cocktail at St. Paul's Memorial Church in Staten Island, New York City, United States. There were no reported casualties in the attack. No group claimed responsibility for the incident.",1,1,1,0.0,1.0,0.0,Facility/Infrastructure Attack,,,Religious Figures/Institutions,Place of Worship,United States,Unknown,,1.0,0.0,0.0,Incendiary,,A Molotov cocktail was used in the attack.,0.0,0.0,0.0,Minor (likely < $1 million),
-257372878,2016,6,9,217,United States,North America,New York,New York City,40.697132,-73.931351,"06/09/2016: An assailant threw a Molotov cocktail at First Central Baptist Church in Staten Island, New York City, United States. There were no reported casualties in the attack. No group claimed responsibility for the incident.",1,1,1,0.0,1.0,0.0,Facility/Infrastructure Attack,,,Religious Figures/Institutions,Place of Worship,United States,Unknown,,1.0,0.0,0.0,Incendiary,,A Molotov cocktail was used in the attack.,0.0,0.0,0.0,Minor (likely < $1 million),
-257342911,2016,6,12,217,United States,North America,Florida,Orlando,28.519601,-81.376794,"06/12/2016: An assailant armed with an assault rifle and a handgun opened fire on customers at Pulse, a gay nightclub, in Orlando, Florida, United States. The assailant then held an unknown number of people hostage inside the nightclub for three hours. At least 49 people were killed and 53 people were injured during the attack before the assailant was killed by police officers, who also rescued 30 hostages. The assailant, identified as Omar Mateen, had pledged allegiance to the Islamic State of Iraq and the Levant (ISIL). Additionally, Mateen stated that he carried out the attack in retaliation for U.S. airstrikes in Iraq and Syria. The Islamic State of Iraq and the Levant (ISIL) also claimed responsibility for the incident; however, Omar Mateen's connection to ISIL could not be confirmed.",1,1,1,0.0,1.0,0.0,Hostage Taking (Barricade Incident),Armed Assault,,Business,Entertainment/Cultural/Stadium/Casino,United States,Jihadi-inspired extremists,"An unaffiliated individual, identified as Omar Mateen, claimed responsibility for the incident and pledged allegiance to the Islamic State of Iraq and the Levant (ISIL). Additionally, Mateen stated that he carried out the attack in retaliation for United States (US) airstrikes in Iraq and Syria.",1.0,0.0,1.0,Firearms,Firearms,A Sig Sauer MCX assault rifle and a Glock 17 handgun were used in the attack.,50.0,1.0,53.0,Minor (likely < $1 million),-99.0
-257282875,2016,6,18,217,United States,North America,Nevada,Las Vegas,36.211296,-115.247536,"06/18/2016: An assailant attempted to assassinate presidential candidate Donald Trump at a campaign rally in Las Vegas, Nevada, United States. The assailant was arrested as he tried to remove a gun from the holster of a police officer. Michael Steven Sandford claimed responsibility for the incident. Sandford stated that he targeted Trump because he believed ""somebody had to stand up for America"" and told the Secret Service that he had planned for over a year to assassinate Trump.",1,1,1,0.0,0.0,0.0,Assassination,,,Private Citizens & Property,Political Party Member/Rally,United States,Anti-Trump extremists,"An unaffiliated individual, identified as Michael Steven Sandford, claimed responsibility for the incident and stated that he targeted Donald Trump because he believed ""somebody had to stand up for America.""",1.0,1.0,1.0,Firearms,,A handgun was used in the attack.,0.0,0.0,0.0,,
-257272862,2016,6,19,217,United States,North America,Virginia,Stephens City,39.111992,-78.193905,"06/19/2016: An explosive device was discovered and safely defused at Life Church in Stephens City, Virginia, United States. No group claimed responsibility for the incident.",1,1,1,0.0,0.0,0.0,Bombing/Explosion,,,Religious Figures/Institutions,Place of Worship,United States,Unknown,,-99.0,0.0,0.0,Explosives,,An explosives-laden package was used in the attack.,0.0,0.0,0.0,,
-256422864,2016,7,4,217,United States,North America,Missouri,St. Louis,38.656298,-90.413024,"07/04/2016: Assailants attempted to set fire to a building that formerly housed the Temple Israel House in St. Louis, Missouri, United States. There were no reported casualties in the attack. No group claimed responsibility; however, sources suspected that the assailants may be members of the Black Hebrew Israelites.",1,1,1,0.0,0.0,0.0,Facility/Infrastructure Attack,,,Religious Figures/Institutions,Place of Worship,United States,Black Hebrew Israelites,,-99.0,0.0,0.0,Incendiary,,,0.0,0.0,0.0,Minor (likely < $1 million),
-256412868,2016,7,5,217,United States,North America,Missouri,St. Louis,38.70333,-90.248796,"07/05/2016: Assailants set fire to the Greater St. Paul Missionary Baptist Church in St. Louis, Missouri, United States. There were no reported casualties in the attack. No group claimed responsibility; however, sources suspected that the assailants may be members of the Black Hebrew Israelites.",1,1,1,0.0,1.0,0.0,Facility/Infrastructure Attack,,,Religious Figures/Institutions,Place of Worship,United States,Black Hebrew Israelites,,-99.0,0.0,0.0,Incendiary,,,0.0,0.0,0.0,Minor (likely < $1 million),
-256402878,2016,7,6,217,United States,North America,Missouri,St. Louis,38.608081,-90.224879,"07/06/2016: Assailants attempted to set fire to the Church of Christ in St. Louis, Missouri, United States. Assailants also spray painted ""Stop Preaching False Doctrine"" and ""America is Sodom and Gomorrah."" No group claimed responsibility for the incident; however, sources suspected the involvement of the Black Hebrew Israelites.",1,1,1,0.0,0.0,0.0,Facility/Infrastructure Attack,,,Religious Figures/Institutions,Place of Worship,United States,Black Hebrew Israelites,"The specific motive is unknown; however, sources noted that the assailants wrote ""Stop Preaching False Doctrine"" and  ""America is Sodom and Gomorrah"" on the church.",-99.0,0.0,0.0,Incendiary,,,0.0,0.0,0.0,,
-256392911,2016,7,7,217,United States,North America,Texas,Dallas,32.779578,-96.804259,"07/07/2016: An assailant opened fire on police officers at a Black Lives Matter protest in Dallas, Texas, United States. Five police officers were killed and nine people, including officers and civilians, were injured in the attack. The assailant was killed during a standoff with police forces following the shooting. Micah Xavier Johnson claimed responsibility for the incident and stated that he ""wanted to kill white people.""",1,1,1,0.0,1.0,0.0,Armed Assault,,,Police,Police Security Forces/Officers,United States,Anti-White extremists,"An unaffiliated individual, identified as Micah Xavier Johnson, claimed responsibility for the incident and stated that he ""wanted to kill white people, especially white officers.""",1.0,0.0,1.0,Firearms,Firearms,"An SKS rifle, a Glock 19 Gen4 pistol, and a Fraser .25-caliber handgun were used in the attack",6.0,1.0,9.0,Minor (likely < $1 million),
-256392896,2016,7,7,217,United States,North America,Tennessee,Bristol,36.58886,-82.185961,"07/07/2016: An assailant opened fire on police officers and civilians in Bristol, Tennessee, United States. One person was killed and four others, including a police officer and the assailant, were injured in the attack. Lakeem Keon Scott claimed responsibility for the incident and stated that he carried out the attack because he was upset with the deaths of African Americans by authorities in Louisiana and Minnesota. Additionally, witnesses reported Scott shouting, ""Police suck! Black lives matter!"" during the attack.",1,1,1,0.0,1.0,0.0,Armed Assault,,,Police,Police Security Forces/Officers,United States,Anti-Police extremists,"An unaffiliated individual, identified as Lakeem Keon Scott, claimed responsibility for the incident and stated that he carried out the attack because he was upset with the deaths of African Americans by authorities in Louisiana and Minnesota. Sources also noted that Scott yelled ""Police suck! Black lives matter!"" during the attack.",1.0,1.0,1.0,Firearms,Firearms,An AR-15 and a .45-caliber pistol were used in the attack.,1.0,0.0,4.0,Minor (likely < $1 million),
-256392894,2016,7,7,217,United States,North America,Texas,College Station,30.62228,-96.347518,"07/07/2016: An assailant opened fire on an Islamic Community center in College Station, Texas, United States. There were no reported casualties in the assault. No group claimed responsibility; however, sources suspected that the attack was carried out by anti-Muslim extremists.",1,1,1,0.0,1.0,0.0,Armed Assault,,,Religious Figures/Institutions,Affiliated Institution,United States,Anti-Muslim extremists,"The specific motive is unknown; however, sources suspected that the attack may have been the result of Islamophobia.",1.0,0.0,0.0,Firearms,,,0.0,0.0,0.0,Minor (likely < $1 million),
-256372890,2016,7,9,217,United States,North America,Texas,San Antonio,29.406786,-98.481201,"07/09/2016: An assailant opened fire on a police station in San Antonio, Texas, United States. There were no casualties in the attack. No group claimed responsibility for the incident.",0,1,1,1.0,1.0,0.0,Armed Assault,,,Police,"Police Building (headquarters, station, school)",United States,Unknown,,1.0,0.0,0.0,Firearms,,,0.0,0.0,0.0,Minor (likely < $1 million),
-256292907,2016,7,17,217,United States,North America,Louisiana,Baton Rouge,30.433483,-91.080857,"07/17/2016: An assailant opened fire on police in Baton Rouge, Louisiana, United States. Four people, including three police officers and the assailant, were killed and three officers were injured in the assault. Gavin Long, an anti-police extremist, claimed responsibility for the incident and stated that ""he needed to bring destruction 'upon bad cops as well as good cops' because of what he saw as the justice system's failure to prosecute bad police officers who commit crimes against 'my people.'""",1,1,1,0.0,1.0,0.0,Armed Assault,,,Police,Police Security Forces/Officers,United States,Anti-Police extremists,"Gavin Long, an anti-police extremist, claimed responsibility for the incident and stated that ""he needed to bring destruction 'upon bad cops as well as good cops' because of what he saw as the justice system's failure to prosecute bad police officers who commit crimes against 'my people.'""",1.0,0.0,1.0,Firearms,Firearms,A IWA Tavor SAR 5.56-caliber rifle and Springfield XD 9.9-mm pistol were used in the attack.,4.0,1.0,3.0,,
-256292890,2016,7,17,217,United States,North America,Florida,Daytona Beach,29.200533,-81.034508,"07/17/2016: An assailant threw an incendiary device at a parked police vehicle in Daytona Beach, Florida, United States. There were no reported casualties in the attack. An unknown anti-police extremist group claimed responsibility for the incident in a note left at the scene and stated ""Black Lives Matter"" while also mentioning Alton Sterling and Philando Castile.",1,1,1,0.0,1.0,0.0,Facility/Infrastructure Attack,,,Police,Police Patrol (including vehicles and convoys),United States,Anti-Police extremists,"An unknown group or individual claimed responsibility for the incident in a note left at the scene and stated ""Black Lives Matter"" and mentioned Alton Sterling and Philando Castile.",1.0,0.0,1.0,Incendiary,,A Molotov cocktail was used in the attack.,0.0,0.0,0.0,Minor (likely < $1 million),
-256282842,2016,7,17,217,United States,North America,Florida,Tampa,28.011485,-82.373941,"07/17/2016: Assailants set fire to the Islamic Education Center in Tampa, Florida, United States. There were no reported casualties. No group claimed responsibility for the incident.",1,1,1,1.0,1.0,0.0,Facility/Infrastructure Attack,,,Educational Institution,School/University/Educational Building,United States,Unknown,,-99.0,0.0,0.0,Incendiary,,,0.0,0.0,0.0,Minor (likely < $1 million),
-256212864,2016,7,25,217,United States,North America,Nevada,Las Vegas,36.211296,-115.247536,"07/25/2016: An assailant set fire to a Mormon church in Las Vegas, Nevada, United States. There were no reported casualties. This was one of two related arson attacks in Las Vegas on this date. No group claimed responsibility for the incidents.",1,1,1,0.0,1.0,0.0,Facility/Infrastructure Attack,,,Religious Figures/Institutions,Place of Worship,United States,Unknown,,1.0,0.0,0.0,Incendiary,,,0.0,0.0,0.0,Minor (likely < $1 million),
-256212863,2016,7,25,217,United States,North America,Nevada,Las Vegas,36.211296,-115.247536,"07/25/2016: An assailant set fire to a firefighters' union hall in Las Vegas, Nevada, United States. There were no reported casualties. This was one of two related arson attacks in Las Vegas on this date. No group claimed responsibility for the incidents.",1,1,1,0.0,1.0,0.0,Facility/Infrastructure Attack,,,Other,Fire Fighter/Truck,United States,Unknown,,1.0,0.0,0.0,Incendiary,,,0.0,0.0,0.0,Minor (likely < $1 million),
-256192854,2016,7,27,217,United States,North America,Florida,Tampa,27.987652,-82.550249,"07/27/2016: Assailants set fire to the Islamic Education Center in Tampa, Florida, United States. There were no reported casualties in the attack. No group claimed responsibility for the incident.",1,1,1,0.0,1.0,0.0,Facility/Infrastructure Attack,,,Educational Institution,School/University/Educational Building,United States,Unknown,,-99.0,0.0,0.0,Incendiary,,,0.0,0.0,0.0,Minor (likely < $1 million),
-256152862,2016,7,31,217,United States,North America,Iowa,Oskaloosa,41.291673,-92.649359,"07/31/2016: Assailants set fire to a construction site for the Dakota Access pipeline near Oskaloosa, Iowa, United States. There were no casualties in the attack. This was one of three related arson attacks on construction equipment for the pipeline in two days. No group claimed responsibility for the incidents.",1,1,1,0.0,1.0,0.0,Facility/Infrastructure Attack,,,Utilities,Oil,United States,Unknown,,-99.0,0.0,0.0,Incendiary,,,0.0,0.0,0.0,Minor (likely < $1 million),
-255452885,2016,8,1,217,United States,North America,Iowa,Newton,41.703318,-93.057353,"08/01/2016: Assailants set fire to a construction site for the Dakota Access pipeline west of Newton, Iowa, United States. There were no reported casualties in the attack. This was one of three related arson attacks on construction equipment for the pipeline in two days. No group claimed responsibility for the incidents.",1,1,1,0.0,1.0,0.0,Facility/Infrastructure Attack,,,Utilities,Oil,United States,Unknown,"The specific motive is unknown; however, sources noted that there was opposition to the Dakota Access Pipeline.",-99.0,0.0,0.0,Incendiary,,,0.0,0.0,0.0,Minor (likely < $1 million),
-255452884,2016,8,1,217,United States,North America,Iowa,Reasnor,41.577354,-93.024003,"08/01/2016: Assailants set fire to a construction site for the Dakota Access pipeline southeast of Reasnor, Iowa, United States. There were no reported casualties in the attack. This was one of three related arson attacks on construction equipment for the pipeline in two days. No group claimed responsibility for the incidents.",1,1,1,0.0,1.0,0.0,Facility/Infrastructure Attack,,,Utilities,Oil,United States,Unknown,"The specific motive is unknown; however, sources noted that there was opposition to the Dakota Access Pipeline.",-99.0,0.0,0.0,Incendiary,,,0.0,0.0,0.0,Minor (likely < $1 million),
-255422860,2016,8,4,217,United States,North America,Florida,Tampa,28.032289,-82.408025,"08/04/2016: Assailants set fire to the Masjid Omar mosque in Tampa, Florida, United States. There were no casualties in the attack. This was one of two attacks on the same mosque in 12 hours. No group claimed responsibility for the incident.",1,1,1,1.0,1.0,0.0,Facility/Infrastructure Attack,,,Religious Figures/Institutions,Place of Worship,United States,Unknown,,-99.0,0.0,0.0,Incendiary,,Gasoline was used in the attack.,0.0,0.0,0.0,Minor (likely < $1 million),
-255412858,2016,8,5,217,United States,North America,Florida,Tampa,28.032289,-82.408025,"08/05/2016: Assailants set fire to the Masjid Omar mosque in Tampa, Florida, United States. There were no casualties in the attack. This was one of two attacks on the same mosque in 12 hours. No group claimed responsibility for the incident.",1,1,1,0.0,1.0,0.0,Facility/Infrastructure Attack,,,Religious Figures/Institutions,Place of Worship,United States,Unknown,,-99.0,0.0,0.0,Incendiary,,Gasoline was used in the attack.,0.0,0.0,0.0,Minor (likely < $1 million),
-255372869,2016,8,9,217,United States,North America,New York,New City,41.154049,-73.990929,"08/09/2016: Assailants threw a firecracker at the house of Rabbi Avremel Kotlarsky in New City, New York, United States. There were no reported casualties in the attack. This was one of two coordinated attacks on the same night. No group claimed responsibility for the incidents.",1,1,1,0.0,1.0,0.0,Bombing/Explosion,,,Religious Figures/Institutions,Religious Figure,United States,Unknown,"The specific motive is unknown; however, sources suspected that the attack was anti-Semitic.",4.0,0.0,0.0,Explosives,,A firecracker was used in the attack.,0.0,0.0,0.0,Minor (likely < $1 million),
-255372868,2016,8,9,217,United States,North America,New York,New City,41.154049,-73.990929,"08/09/2016: Assailants threw a firecracker at the house of Rabbi Simcha Morgenstern in New City, New York, United States. There were no reported casualties in the attack. This was one of two coordinated attacks on the same night. No group claimed responsibility for the incidents.",1,1,1,0.0,1.0,0.0,Bombing/Explosion,,,Religious Figures/Institutions,Religious Figure,United States,Unknown,"The specific motive is unknown; however, sources suspected that the attack was anti-Semitic.",-99.0,0.0,0.0,Explosives,,A firecracker was used in the attack.,0.0,0.0,0.0,,
-255362813,2016,8,10,217,United States,North America,New York,Endicott,42.095085,-76.059599,"08/10/2016: An assailant set fire to a residence in Endicott, New York, United States. The offender placed gasoline-filled cans throughout the house as obstacles and spray-painted the anti-police message ""lie with pigs, fry like bacon"" on an exterior wall of the house before starting the blaze. The family sleeping inside the house escaped, and no injuries were reported. No group claimed responsibility; however, authorities arrested and charged firefighter Jason T. Stokes with starting the fire at his own house.",0,1,1,1.0,1.0,0.0,Facility/Infrastructure Attack,,,Private Citizens & Property,House/Apartment/Residence,United States,Unknown,"The specific motive is unknown; however, sources noted that the assailant spray-painted ""Lie with pigs, fry like bacon"" on the wall of the targeted house.",1.0,1.0,0.0,Incendiary,,Gasoline was used in the attack.,0.0,0.0,0.0,Minor (likely < $1 million),
-255332891,2016,8,13,217,United States,North America,New York,New York City,40.697132,-73.931351,"08/13/2016: Assailants opened fire on an Imam, Maulama Akonjee, and his assistant, Thara Uddin, in Queens, New York City, United States. Akonjee and Uddin were killed in the attack. No group claimed responsibility, though authorities arrested Oscar Morel in connection with the incident.",0,1,1,1.0,1.0,0.0,Armed Assault,,,Religious Figures/Institutions,Religious Figure,United States,Unknown,"The specific motive is unknown; however, sources suspected that the attack may have been carried out in retaliation for the deaths of members of the Hispanic community by alleged Muslims.",1.0,1.0,0.0,Firearms,,,2.0,0.0,0.0,,
-255262870,2016,8,20,217,United States,North America,Virginia,Roanoke,37.27097,-79.941427,"08/20/2016: An assailant stabbed and injured two civilians at an apartment complex in Roanoke, Virginia, United States. The assailant was also injured in the attack. No group claimed responsibility for the incident; however, sources identified the assailant as Wasil Farooqui.",1,1,1,1.0,1.0,0.0,Armed Assault,,,Private Citizens & Property,Unnamed Civilian/Unspecified,United States,Unknown,"The specific motive is unknown; however, sources noted that the Federal Bureau of Investigation (FBI) was investigating if the attack was inspired by the Islamic State of Iraq and the Levant (ISIL).",1.0,1.0,0.0,Melee,,A knife was used in the attack.,0.0,0.0,3.0,,
-255232887,2016,8,23,217,United States,North America,Massachusetts,Salem,42.521477,-70.895532,"08/23/2016: An explosive device detonated in a Rainbow Times newspaper box in Salem, Massachusetts, United States. There were no reported casualties in the blast. No group claimed responsibility for the incident.",1,1,1,0.0,1.0,0.0,Bombing/Explosion,,,Journalists & Media,Newspaper Journalist/Staff/Facility,United States,Unknown,,7.0,0.0,0.0,Explosives,,,0.0,0.0,0.0,Minor (likely < $1 million),
-254442857,2016,9,2,217,United States,North America,Nevada,Las Vegas,36.197294,-115.131528,"09/02/2016: Assailants set fire to the Holy Trinity African Methodist Episcopal Church in Las Vegas, Nevada, United States. There were no reported casualties. No group claimed responsibility for the incident.",1,1,1,0.0,1.0,0.0,Facility/Infrastructure Attack,,,Religious Figures/Institutions,Place of Worship,United States,Unknown,,-99.0,0.0,0.0,Incendiary,,,0.0,0.0,0.0,Minor (likely < $1 million),
-254342911,2016,9,12,217,United States,North America,Florida,Fort Pierce,27.374522,-80.337837,"09/12/2016: An assailant set fire to the Islamic Center mosque in Fort Pierce, Florida, United States. There were no reported casualties in the attack. Joseph Michael Schreiber was arrested and claimed responsibility for the incident.",1,1,1,0.0,1.0,0.0,Facility/Infrastructure Attack,,,Religious Figures/Institutions,Place of Worship,United States,Anti-Muslim extremists,"The specific motive is unknown; however, sources noted that Omar Mateen, the assailant who carried out the Orlando attack in June 2016, had attended the targeted mosque. Sources also noted that Joseph Michael Schreiber was Islamophobic.",1.0,1.0,1.0,Incendiary,,,0.0,0.0,0.0,Unknown,
-254302910,2016,9,16,217,United States,North America,Pennsylvania,Philadelphia,40.008171,-75.13549,"09/16/2016: An assailant shot and injured police sergeant Sylvia Young in Philadelphia, Pennsylvania, United States. When officers responded, the assailant proceeded to shoot at additional targets, including people sitting in a tavern and in a vehicle, and another police officer in an alley. The assailant and one civilian were killed and five people, including two police officers, were injured in the attack. Nicholas Glenn claimed responsibility for the incident and stated in a note left at the scene that he hated police officers.",0,1,1,1.0,1.0,0.0,Armed Assault,,,Police,Police Security Forces/Officers,United States,Anti-Police extremists,"An unaffiliated individual, identified as Nicholas Glenn, claimed responsibility for the incident and stated in a note left at the scene that he disliked authorities.",1.0,0.0,1.0,Firearms,,A 9-mm Ruger semiautomatic handgun was used in the attack.,2.0,1.0,5.0,Minor (likely < $1 million),
-254292911,2016,9,17,217,United States,North America,New Jersey,Seaside Park,39.925457,-74.074757,"09/17/2016: An explosive device detonated in Seaside Park, New Jersey, United States. It is believed that the blast was targeting a military charity race but failed to cause any casualties as the race was late to begin. Ahmad Khan Rahami claimed responsibility for this incident and three similar bombings that occurred between September 17 and September 18, 2016 in New York and New Jersey. Sources suspected that Rahami may have been inspired by Abu Muhammad al Adnani, a spokesperson for the Islamic State of Iraq and the Levant (ISIL). Sources also noted that Rahami admired Osama bin Laden and Anwar al-Awlaki in his journal.",1,1,1,0.0,1.0,0.0,Bombing/Explosion,,,Private Citizens & Property,"Procession/Gathering (funeral, wedding, birthday, religious)",United States,Jihadi-inspired extremists,"The specific motive is unknown; however, sources suspected that Ahmad Khan Rahami may have been inspired by Abu Muhammad al Adnani, a spokesperson for the Islamic State of Iraq and the Levant (ISIL). Sources also noted that Rahami admired Osama bin Laden and Anwar al-Awlaki within his journal.",1.0,1.0,1.0,Explosives,,Three pipe bombs planted inside a garbage can and utilizing a flip phone as a triggering mechanism were used in the attack.,0.0,0.0,0.0,Minor (likely < $1 million),
-254292910,2016,9,17,217,United States,North America,New York,New York City,40.697132,-73.931351,"09/17/2016: An explosive device detonated in the Chelsea neighborhood of Manhattan, New York City, United States. At least 29 people were injured in the blast. Ahmad Khan Rahami claimed responsibility for this incident and three similar bombings that occurred between September 17 and September 18, 2016 in New York and New Jersey. Sources suspected that Rahami may have been inspired by Abu Muhammad al Adnani, a spokesperson for the Islamic State of Iraq and the Levant (ISIL). Sources also noted that Rahami admired Osama bin Laden and Anwar al-Awlaki in his journal.",1,1,1,0.0,1.0,0.0,Bombing/Explosion,,,Private Citizens & Property,Unnamed Civilian/Unspecified,United States,Jihadi-inspired extremists,"The specific motive is unknown; however, sources suspected that Ahmad Khan Rahami may have been inspired by Abu Muhammad al Adnani, a spokesperson for the Islamic State of Iraq and the Levant (ISIL). Sources also noted that Rahami admired Osama bin Laden and Anwar al-Awlaki within his journal.",1.0,1.0,1.0,Explosives,,A remote-controlled explosive device utilizing a flip phone as a triggering mechanism and containing ball bearings and BBs was used in the attack.,0.0,0.0,29.0,Minor (likely < $1 million),
-254292909,2016,9,17,217,United States,North America,New York,New York City,40.697132,-73.931351,"09/17/2016: Security forces discovered and defused an explosive device in the Chelsea neighborhood of Manhattan, New York City, United States. The device was discovered several blocks away from an explosion that occurred earlier the same day. Ahmad Khan Rahami claimed responsibility for this incident and three similar bombings that occurred between September 17 and September 18, 2016 in New York and New Jersey. Sources suspected that Rahami may have been inspired by Abu Muhammad al Adnani, a spokesperson for the Islamic State of Iraq and the Levant (ISIL). Sources also noted that Rahami admired Osama bin Laden and Anwar al-Awlaki in his journal.",1,1,1,0.0,0.0,0.0,Bombing/Explosion,,,Private Citizens & Property,Unnamed Civilian/Unspecified,United States,Jihadi-inspired extremists,"The specific motive is unknown; however, sources suspected that Ahmad Khan Rahami may have been inspired by Abu Muhammad al Adnani, a spokesperson for the Islamic State of Iraq and the Levant (ISIL). Sources also noted that Rahami admired Osama bin Laden and Anwar al-Awlaki within his journal.",1.0,1.0,1.0,Explosives,,An explosives-laden pressure cooker utilizing a flip phone as a triggering mechanism and containing ball bearings and BBs was used in the attack.,0.0,0.0,0.0,,
-254292908,2016,9,17,217,United States,North America,Minnesota,St. Cloud,45.555575,-94.210178,"09/17/2016: An assailant stabbed and injured 10 people at the Crossroads Center shopping mall in St. Cloud, Minnesota, United States. The assailant, identified as Dahir Ahmed Adan, was shot and killed by a police officer. The Islamic State of Iraq and the Levant (ISIL) claimed responsibility for the incident; however, Adan's connection to ISIL could not be confirmed.",1,1,1,0.0,1.0,0.0,Armed Assault,,,Business,Retail/Grocery/Bakery,United States,Jihadi-inspired extremists,"The specific motive is unknown; however, James Comey, the director of the Federal Bureau of Investigation (FBI) stated that Dahir Ahmed Adan seemed to have been inspired by ""radical Islamic groups.""",1.0,0.0,0.0,Melee,,A knife was used in the attack.,1.0,1.0,10.0,,
-254282911,2016,9,18,217,United States,North America,New Jersey,Elizabeth,40.666781,-74.215785,"09/18/2016: Security forces discovered and attempted to defuse five explosive devices near a train station in Elizabeth, New Jersey, United States. One device detonated but failed to cause any casualties. Ahmad Khan Rahami claimed responsibility for this incident and three similar bombings that occurred between September 17 and September 18, 2016 in New York and New Jersey. Sources suspected that Rahami may have been inspired by Abu Muhammad al Adnani, a spokesperson for the Islamic State of Iraq and the Levant (ISIL). Sources also noted that Rahami admired Osama bin Laden and Anwar al-Awlaki in his journal.",1,1,1,0.0,1.0,0.0,Bombing/Explosion,,,Transportation,Train/Train Tracks/Trolley,United States,Jihadi-inspired extremists,"The specific motive is unknown; however, sources suspected that Ahmad Khan Rahami may have been inspired by Abu Muhammad al Adnani, a spokesperson for the Islamic State of Iraq and the Levant (ISIL). Sources also noted that Rahami admired Osama bin Laden and Anwar al-Awlaki within his journal.",1.0,1.0,1.0,Explosives,,Five pipe bombs utilizing a flip phone as a triggering mechanism and planted inside a backpack were used in the attack.,0.0,0.0,0.0,Minor (likely < $1 million),
-254222887,2016,9,24,217,United States,North America,Missouri,Kansas City,39.176086,-94.574127,"09/24/2016: Assailants set fire to the Islamic Center of Northland in Kansas City, Missouri, United States. There were no reported casualties in the attack. No group claimed responsibility for the incident.",1,1,1,0.0,1.0,0.0,Facility/Infrastructure Attack,,,Religious Figures/Institutions,Place of Worship,United States,Unknown,,-99.0,0.0,0.0,Incendiary,,Two Molotov cocktails were used in the attack.,0.0,0.0,0.0,Minor (likely < $1 million),
-253432872,2016,10,3,217,United States,North America,Nebraska,Lincoln,40.846274,-96.700467,"10/03/2016: Assailants set fire to the Belmont Baptist Church in Belmont, Nebraska, United States. There were no reported casualties. This was one of two arson attacks targeting the church on this date. No group claimed responsibility for the incident.",1,1,1,0.0,1.0,0.0,Facility/Infrastructure Attack,,,Religious Figures/Institutions,Place of Worship,United States,Unknown,,-99.0,0.0,0.0,Incendiary,,,0.0,0.0,0.0,Minor (likely < $1 million),
-253432852,2016,10,3,217,United States,North America,Nebraska,Lincoln,40.846244,-96.700429,"10/03/2016: Assailants set fire to the Belmont Baptist Church in Lincoln, Nebraska, United States. There were no reported casualties in the incident. This was one of two arson attacks targeting the same church on this date. No group claimed responsibility for the incidents.",1,1,1,0.0,1.0,0.0,Facility/Infrastructure Attack,,,Religious Figures/Institutions,Place of Worship,United States,Unknown,,-99.0,0.0,0.0,Incendiary,,,0.0,0.0,0.0,Minor (likely < $1 million),
-253422854,2016,10,4,217,United States,North America,Indiana,Indianapolis,39.825657,-86.227067,"10/04/2016: An assailant opened fire on the Indianapolis Metropolitan Police Department northwest district headquarters in Indianapolis, Indiana, United States. There were no reported casualties in the assault. Authorities arrested an anti-white extremist, identified as Damoine A. Wilcoxson, in connection with the attack. Sources indicated that a note left at the scene declared ""war on white people,"" and that Wilcoxson made statements online calling for ""social justice and retribution.""",1,1,1,0.0,1.0,0.0,Armed Assault,,,Police,"Police Building (headquarters, station, school)",United States,Anti-White extremists,"In a note left at the scene, Damoine A. Wilcoxson claimed responsibility for the incident and announced a ""war on white people.""",1.0,1.0,1.0,Firearms,,A semiautomatic assault rifle was used in the attack.,0.0,0.0,0.0,Minor (likely < $1 million),
-253372869,2016,10,9,217,United States,North America,Florida,Century,30.963733,-87.267362,"10/09/2016: Assailants set fire to Wesley Chapel Church in Century, Florida, United States. There were no reported casualties in the attack. No group claimed responsibility for the incident.",1,1,1,0.0,1.0,0.0,Facility/Infrastructure Attack,,,Religious Figures/Institutions,Place of Worship,United States,Unknown,,-99.0,0.0,0.0,Incendiary,,,0.0,0.0,0.0,Unknown,
-253332860,2016,10,13,217,United States,North America,Indiana,Indianapolis,39.826113,-86.227124,"10/13/2016: An assailant opened fire on the Indianapolis Metropolitan Police Department north district headquarters in Indianapolis, Indiana, United States. There were no reported casualties in the assault. Authorities arrested an anti-white extremist, identified as Damoine A. Wilcoxson, in connection with the attack. Sources indicated that a note left at the scene declared ""war on white people,"" and that Wilcoxson made statements online calling for ""social justice and retribution.""",1,1,1,0.0,1.0,0.0,Armed Assault,,,Police,"Police Building (headquarters, station, school)",United States,Anti-White extremists,"In a note left at the scene, Damoine A. Wilcoxson claimed responsibility for the incident and announced a ""war on white people.""",1.0,1.0,1.0,Firearms,,A semiautomatic assault rifle was used in the attack.,0.0,0.0,0.0,Minor (likely < $1 million),
-253312899,2016,10,15,217,United States,North America,Iowa,Reasnor,41.578663,-93.022688,"10/15/2016: Assailants set fire to construction equipment for the Dakota Access oil pipeline in Reasnor, Iowa, United States. There were no reported casualties in the attack. No group claimed responsibility for the incident.",1,1,1,0.0,1.0,0.0,Facility/Infrastructure Attack,,,Business,Gas/Oil/Electric,United States,Unknown,"The specific motive is unknown; however, sources noted that there was opposition to the Dakota Access Pipeline.",-99.0,0.0,0.0,Incendiary,,,0.0,0.0,0.0,Major (likely >= $1 million but < $1 billion),
-253302890,2016,10,16,217,United States,North America,North Carolina,Hillsborough,36.060668,-79.101578,"10/16/2016: Assailants threw a Molotov cocktail targeting a Republican Party (GOP) office in Hillsborough, North Carolina, United States. There were no reported casualties in the attack. No group claimed responsibility for the incident; however, sources noted that the assailants spray-painted ""Nazi Republicans leave town or else"" on the building.",1,1,1,0.0,1.0,0.0,Facility/Infrastructure Attack,,,Private Citizens & Property,Political Party Member/Rally,United States,Unknown,"The specific motive is unknown; however, sources noted that the assailants spray-painted ""Nazi Republicans leave town or else"" on the targeted office.",-99.0,0.0,0.0,Incendiary,,A firebomb was used in the attack.,0.0,0.0,0.0,Minor (likely < $1 million),
-252382853,2016,11,8,217,United States,North America,Iowa,Buena Vista County,42.670545,-95.143207,"11/08/2016: Assailant set fire to Dakota Access Pipeline equipment in Buena Vista County, Iowa, United States. There were no reported casualties in the attack. Two unaffiliated individuals, identified as Jessica Reznicek and Ruby Montoya, claimed responsibility for the incident.",1,1,1,0.0,1.0,0.0,Facility/Infrastructure Attack,,,Business,Construction,United States,Unknown,"An unaffiliated individual, identified as Jessica Reznicek, claimed responsibility for the incident and stated ""We are speaking publicly to empower others to act boldly, with purity of heart, to dismantle the infrastructures which deny us our rights to water, land and liberty.""",2.0,2.0,1.0,Incendiary,,,0.0,0.0,0.0,Minor (likely < $1 million),
-252232850,2016,11,23,217,United States,North America,New Mexico,Albuquerque,35.091952,-106.586558,"11/23/2016: Assailants set fire to a Project Defending Life office in Albuquerque, New Mexico, United States. No casualties were reported in the attack. No group claimed responsibility for the incident.",1,1,1,0.0,1.0,0.0,Facility/Infrastructure Attack,,,Business,Medical/Pharmaceutical,United States,Unknown,,-99.0,0.0,0.0,Incendiary,,,0.0,0.0,0.0,Minor (likely < $1 million),
-252212886,2016,11,25,217,United States,North America,Washington,Tacoma,47.154901,-122.368098,"11/25/2016: Assailants set fire to Our Savior Lutheran Church in Tacoma, Washington, United States. There were no reported casualties in the attack. No group claimed responsibility for the incident.",1,1,1,0.0,1.0,0.0,Facility/Infrastructure Attack,,,Religious Figures/Institutions,Place of Worship,United States,Unknown,,-99.0,0.0,0.0,Incendiary,,,0.0,0.0,0.0,Minor (likely < $1 million),
-252182911,2016,11,28,217,United States,North America,Ohio,Columbus,40.00329,-83.011421,"11/28/2016: An assailant rammed his vehicle into a group of students and stabbed bystanders at Ohio State University in Columbus, Ohio, United States. At least 11 people were injured before a nearby police officer shot and killed the assailant. The assailant, identified as Abdul Razak Ali Artan, wrote on his Facebook page prior to the attack, ""If you want us Muslims to stop carrying lone wolf attacks, then make peace with the Islamic State group."" The Islamic State of Iraq and the Levant (ISIL) also claimed responsibility for the incident; however, Artan's connection to ISIL could not be confirmed.",1,1,1,0.0,1.0,0.0,Armed Assault,,,Private Citizens & Property,Student,United States,Jihadi-inspired extremists,"An unaffiliated individual, identified as Abdul Razak Ali Artan, claimed responsibility for the incident and wrote on his Facebook page prior to the attack, ""If you want us Muslims to stop carrying lone wolf attacks, then make peace with the Islamic State group."" Sources also noted that Artan indicated that he felt uncomfortable when praying at Ohio State University.",1.0,0.0,1.0,Melee,"Vehicle (not to include vehicle-borne explosives, i.e., car or truck bombs)",A knife and a vehicle were used in the attack.,1.0,1.0,11.0,,
-251422865,2016,12,4,217,United States,North America,District of Columbia,Washington,38.908642,-77.015381,"12/04/2016: An assailant opened fire inside Comet Ping Pong restaurant in Washington, District of Columbia, United States. There were no reported casualties, and the assailant was arrested at the scene. The assailant, identified as Edgar M. Welch, stated that he targeted Comet Ping Pong because he suspected that the human trafficking of children was occurring at the restaurant.",1,1,1,0.0,0.0,0.0,Armed Assault,,,Business,Restaurant/Bar/CafÃ©,United States,Unknown,"An unaffiliated individual, identified as Edgar M. Welch, claimed responsibility for the incident and stated that he targeted Comet Ping Pong restaurant because he wanted to look into an inaccurate Internet article, which stated that human trafficking of children was occurring at the restaurant.",1.0,1.0,1.0,Firearms,Firearms,An AR-15 assault rifle and a Colt .38-caliber revolver were used in the attack.,0.0,0.0,0.0,Minor (likely < $1 million),
-251382874,2016,12,7,217,United States,North America,California,Redlands,34.053546,-117.181537,"12/07/2016: Assailants set fire to First Baptist Church in Redlands, California, United States. There were no reported casualties in the attack. No group claimed responsibility for the incident.",1,1,1,0.0,1.0,0.0,Facility/Infrastructure Attack,,,Religious Figures/Institutions,Place of Worship,United States,Unknown,,-99.0,0.0,0.0,Incendiary,,,0.0,0.0,0.0,Minor (likely < $1 million),
-251312868,2016,12,15,217,United States,North America,Texas,Dallas,32.776664,-96.796988,"12/15/2016: An assailant sent a message via Twitter to Kurt Eichenwald, a Newsweek journalist, in Dallas, Texas, United States. The message contained the text ""You deserve a seizure for your posts"" and a GIF image of a strobe. Eichenwald, who has epilepsy, suffered a seizure and was incapacitated for several days. No group claimed responsibility for the incident; however, authorities arrested John Rayne Rivello in connection with the attack.",1,1,1,0.0,0.0,0.0,Assassination,,,Journalists & Media,Newspaper Journalist/Staff/Facility,United States,Anti-Semitic extremists,"The specific motive is unknown; however, sources noted that John Rayne Rivello was prejudice against members of the Jewish community. Sources also suspected that Kurt Eichenwald may have been targeted for his critical comments of President Trump.",1.0,1.0,0.0,Other,,A strobe light GIF sent via Twitter was used in the attack.,0.0,0.0,1.0,,
-162442836,2017,1,2,217,United States,North America,Illinois,Chicago,41.842602,-87.681229,"01/02/2017: Four assailants tied up and tortured a mentally disabled person at a residence in the west side of Chicago, Illinois, United States. The victim was released after four hours. The attack was streamed on Facebook and the assailants shouted anti-Trump and anti-white profanities. Jordan Hill, Brittany Covington, Tesfaye Cooper, and Tanisha Covington were arrested on hate crime charges in connection with the incident.",1,1,1,0.0,1.0,0.0,Hostage Taking (Kidnapping),,,Private Citizens & Property,Unnamed Civilian/Unspecified,United States,Anti-White extremists,"The specific motive is unknown; however, sources noted that the assailants made anti-white and anti-Trump statements during the attack.",4.0,4.0,1.0,Melee,Melee,,0.0,0.0,1.0,,1.0
-162402890,2017,1,6,217,United States,North America,Florida,Fort Lauderdale,26.071231,-80.145668,"01/06/2017: An assailant opened fire at Fort Lauderdale-Hollywood International Airport in Fort Lauderdale, Florida, United States. At least five people were killed and six other people were injured in the assault. Esteban Santiago admitted that he had discussed his plans for the attack in various jihadi online chat rooms. Moreover, Santiago stated that the Central Intelligence Agency (CIA) was forcing him to view Islamic State of Iraq and the Levant (ISIL) videos.",1,1,1,1.0,1.0,0.0,Armed Assault,,,Airports & Aircraft,Airport,United States,Jihadi-inspired extremists,"An unaffiliated individual, identified as Esteban Santiago, admitted that he had discussed his plans for the attack in various jihadi online chat rooms. Moreover, Santiago stated that the Central Intelligence Agency (CIA) was forcing him to view Islamic State of Iraq and the Levant (ISIL) videos.",1.0,1.0,1.0,Firearms,,A 9-mm pistol was used in the attack.,5.0,0.0,6.0,,
-162392897,2017,1,7,217,United States,North America,,Hudson Bend,30.411172,-97.930155,"01/07/2017: Assailants set fire to the Islamic Center of Lake Travis in Hudson Bend, Texas, United States. There were no reported casualties in the attack. No group claimed responsibility; however, sources suspected that the incident was carried out by anti-Muslim extremists.",1,1,1,1.0,1.0,0.0,Facility/Infrastructure Attack,,,Religious Figures/Institutions,Place of Worship,United States,Anti-Muslim extremists,,-99.0,0.0,0.0,Incendiary,,,0.0,0.0,0.0,Minor (likely < $1 million),
-162392890,2017,1,7,217,United States,North America,Texas,Fort Worth,32.713541,-97.355277,"01/07/2017: Assailants set fire to St. Stephen Presbyterian Church on MacPherson Avenue in Fort Worth, Texas, United States. There were no reported casualties in the attack. No group claimed responsibility; however, officials arrested Jonathan Jimenez in connection with the incident.",1,1,1,0.0,1.0,0.0,Facility/Infrastructure Attack,,,Religious Figures/Institutions,Place of Worship,United States,Unknown,,-99.0,1.0,0.0,Incendiary,,,0.0,0.0,0.0,Minor (likely < $1 million),
-162322872,2017,1,14,217,United States,North America,Washington,Bellevue,47.602104,-122.156296,"01/14/2017: An assailant set fire to Bellevue mosque in Bellevue, Washington, United States. There were no reported casualties in the attack. No group claimed responsibility for the incident; however, authorities arrested Isaac Wayne Wilson in connection with the attack.",0,1,1,1.0,1.0,0.0,Facility/Infrastructure Attack,,,Religious Figures/Institutions,Place of Worship,United States,Anti-Muslim extremists,"The specific motive is unknown; however, sources suspected that the attack may have been Islamophobic.",1.0,1.0,0.0,Incendiary,,,0.0,0.0,0.0,Minor (likely < $1 million),
-162262857,2017,1,20,217,United States,North America,Missouri,Kansas City,39.176086,-94.574127,"01/20/2017: Assailants threatened a gay civilian with a gun and punched him outside his home in Kansas City, Missouri, United States. The civilian, identified as Gyo, was injured in the assault. The assailants also spray-painted homophobic slurs on the victim's vehicle during the incident.",1,1,1,0.0,1.0,0.0,Armed Assault,,,Private Citizens & Property,Named Civilian,United States,Anti-LGBT extremists,Anti-LGBT extremists claimed responsibility for the incident and spray-painted homophobic slurs on the victim's vehicle.,2.0,0.0,1.0,Firearms,Melee,,0.0,0.0,1.0,Minor (likely < $1 million),
-162182874,2017,1,28,217,United States,North America,Texas,Victoria,28.819306,-97.003321,"01/28/2017: An assailant set fire to the Islamic Center of Victoria in Victoria, Texas, United States. There were no reported casualties in the attack. No group claimed responsibility for the incident; however, sources attributed the attack to an anti-Muslim extremist, identified as Marq Vincent Perez, who targeted the mosque because he thought ""its worshipers were terrorists.""",1,1,1,0.0,1.0,0.0,Facility/Infrastructure Attack,,,Religious Figures/Institutions,Place of Worship,United States,Anti-Muslim extremists,"The specific motive is unknown; however, sources noted that Marq Vincent Perez targeted the mosque because he thought ""its worshipers were terrorists.""",1.0,1.0,0.0,Incendiary,,,0.0,0.0,0.0,Unknown,
-162152853,2017,1,31,217,United States,North America,Colorado,Denver,39.758968,-104.876305,"01/31/2017: An assailant shot and killed Scott Von Lanken, a transit security guard, near Union Station in Denver, Colorado, United States. Joshua Cummings, a Muslim extremist, claimed responsibility for the incident and stated that he carried out the attack ""for the pleasure of Allah."" Cummings pledged allegiance to the Islamic State of Iraq and the Levant (ISIL) after his arrest, but he claimed that the attack was not in the name of ISIL.",1,1,1,0.0,1.0,0.0,Armed Assault,,,Police,Police Security Forces/Officers,United States,Jihadi-inspired extremists,"An unaffiliated individual, identified as Joshua Andrew Cummings, claimed responsibility for the incident and stated ""On the night in question, what I did do, I didn't do that for the Islamic State. I did that purely and solely for the pleasure of Allah."" Sources also noted that Cummings had pledged allegiance to the Islamic State of Iraq and the Levant (ISIL).",1.0,1.0,1.0,Firearms,,A handgun was used in the attack.,1.0,0.0,0.0,,
-161402887,2017,2,6,217,United States,North America,,Manchester,42.993611,-71.486401,"02/06/2017: Assailants robbed and set fire to the Rodriguez Market and Restaurant in Notre Dame neighborhood, Manchester, New Hampshire, United States. There were no reported casualties in the attack. In a note left at the scene, the assailants spray-painted ""KKK"" (Ku Klux Klan) on the targeted business.",1,1,1,0.0,1.0,0.0,Facility/Infrastructure Attack,,,Business,Retail/Grocery/Bakery,United States,Ku Klux Klan,"In a note left at the scene, assailants spray-painted ""KKK"" on the targeted business.",-99.0,0.0,1.0,Incendiary,,,0.0,0.0,0.0,Minor (likely < $1 million),
-161362875,2017,2,9,217,United States,North America,Mississippi,Jackson,32.298757,-90.18481,"02/09/2017: Assailants attempted to set fire to the house of Stanley Wesley, the leader of the Respect Our Black Dollars activist group, in Jackson, Mississippi, United States. There were no reported casualties, but the residence was damaged in the attack. In a note and graffiti left at the scene, the assailants identified themselves as members of the Ku Klux Klan.",1,1,1,0.0,1.0,0.0,Facility/Infrastructure Attack,,,Private Citizens & Property,Labor Union Related,United States,Ku Klux Klan,"In a note left at the scene, assailants identified themselves as members of the Ku Klux Klan and stated, ""You Took my Flag, Pay Back.""",-99.0,0.0,1.0,Incendiary,,,0.0,0.0,0.0,Minor (likely < $1 million),
-161242895,2017,2,22,217,United States,North America,Kansas,Olathe,38.853889,-94.781111,"02/22/2017: An assailant opened fire on two Indian civilians at a bar in Olathe, Kansas, United States. Srinivas Kuchibhotla was killed and Alok Madasani was injured in the attack. In addition, Ian Grillot, a United States citizen, was shot and injured when he tried to intervene. Adam W. Purinton, a white extremist, claimed responsibility for the incident and stated that he had killed ""two Middle Eastern persons."" Moreover, prior to the attack Purinton screamed ""get out of my country"" at the victims.",1,1,1,0.0,1.0,0.0,Armed Assault,,,Private Citizens & Property,Race/Ethnicity Identified,India,White extremists,"An unaffiliated individual, identified as Adam W. Purinton, claimed responsibility for the incident and stated that he had killed ""two Middle Eastern persons."" Moreover, prior to the attack Purinton screamed ""get out of my country"" to the victims.",1.0,1.0,1.0,Firearms,,A handgun was used in the attack.,1.0,0.0,2.0,,
-161222892,2017,2,24,217,United States,North America,Florida,Thonotosassa,28.148307,-82.280547,"02/24/2017: Assailants set fire to the Daarus Salaam Mosque in Thonotosassa, Florida, United States. There were no reported casualties in the attack. No group claimed responsibility; however, sources attributed the incident to anti-Muslim extremists.",1,1,1,0.0,1.0,0.0,Facility/Infrastructure Attack,,,Religious Figures/Institutions,Place of Worship,United States,Anti-Muslim extremists,,-99.0,0.0,0.0,Incendiary,,,0.0,0.0,0.0,Minor (likely < $1 million),
-161182890,2017,2,28,217,United States,North America,U.S. Virgin Islands,Charlotte Amalie,18.340668,-64.926876,"02/28/2017: An assailant threw firebombs at the Ron de Lugo Federal Building in Charlotte Amalie, Saint Thomas, United States Virgin Islands. There were no reported casualties. This was one of three coordinated attacks on this date. No group claimed responsibility for the incidents; however, sources identified the assailant as Spencer Wayne Allen, an unaffiliated individual.",1,1,1,1.0,1.0,0.0,Facility/Infrastructure Attack,,,Government (General),Government Building/Facility/Office,Virgin Islands (U.S.),Unknown,,1.0,1.0,0.0,Incendiary,,Firebombs were used in the attack.,0.0,0.0,0.0,Minor (likely < $1 million),
-161182889,2017,2,28,217,United States,North America,U.S. Virgin Islands,Charlotte Amalie,18.339965,-64.930059,"02/28/2017: An assailant threw firebombs at the United States Coast Guard building in Charlotte Amalie, Saint Thomas, United States Virgin Islands. There were no reported casualties. This was one of three coordinated attacks on this date. No group claimed responsibility for the incidents; however, sources identified the assailant as Spencer Wayne Allen, an unaffiliated individual.",1,1,0,1.0,1.0,0.0,Facility/Infrastructure Attack,,,Military,Military Barracks/Base/Headquarters/Checkpost,Virgin Islands (U.S.),Unknown,,1.0,1.0,0.0,Incendiary,,Firebombs were used in the attack.,0.0,0.0,0.0,Unknown,
-161182888,2017,2,28,217,United States,North America,U.S. Virgin Islands,Charlotte Amalie West,18.336551,-64.953661,"02/28/2017: An assailant threw firebombs at a United States Armed Forces recruiting office in Charlotte Amalie, Saint Thomas, United States Virgin Islands. There were no reported casualties. This was one of three coordinated attacks on this date. No group claimed responsibility for the incidents; however, sources identified the assailant as Spencer Wayne Allen, an unaffiliated individual.",1,1,1,1.0,1.0,0.0,Facility/Infrastructure Attack,,,Military,Military Recruiting Station/Academy,Virgin Islands (U.S.),Unknown,,1.0,1.0,0.0,Incendiary,,Firebombs were used in the attack.,0.0,0.0,0.0,Unknown,
-160432900,2017,3,3,217,United States,North America,Washington,Kent,47.403401,-122.174519,"03/03/2017: An assailant in a mask shouted ""Go back to your country"" and opened fire on a Sikh civilian outside his home in Kent, Washington, United States. The civilian was injured in the incident. No group claimed responsibility for the attack.",1,1,1,0.0,1.0,0.0,Armed Assault,,,Private Citizens & Property,Religion Identified,United States,Unknown,"The specific motive is unknown; however, sources noted that the assailants yelled, ""Go back to your own country"" during the attack.",1.0,0.0,0.0,Firearms,,,0.0,0.0,1.0,,
-160362867,2017,3,10,217,United States,North America,Florida,Port St. Lucie,27.31804,-80.349962,"03/10/2017: An assailant set fire to an Indian-owned convenience store in Port St. Lucie, Florida, United States. There were no reported casualties, though the store was damaged in the attack. Richard Lloyd was arrested and confessed to carrying out the attack. Lloyd stated that he believed the store was owned by Muslims and that he wanted to ""run the Arabs out of our country.""",1,1,1,0.0,1.0,0.0,Facility/Infrastructure Attack,,,Business,Retail/Grocery/Bakery,United States,Anti-Arab extremists,"An unaffiliated individual, identified as Richard Leslie Lloyd, claimed responsibility for the incident and stated that he wanted to ""run the Arabs out of our country.""",1.0,1.0,1.0,Incendiary,,,0.0,0.0,0.0,Minor (likely < $1 million),
-160262871,2017,3,20,217,United States,North America,New York,New York City,40.697132,-73.931351,"03/20/2017: An assailant stabbed Timothy Caughman with a sword in Chelsea neighborhood, New York City, United States. Caughman, an African-American civilian, was killed in the attack. James Harris Jackson, a white extremist, claimed responsibility for the incident and stated that he targeted Caughman in order to persuade white women against interracial relationships.",1,1,1,0.0,1.0,0.0,Armed Assault,,,Private Citizens & Property,Race/Ethnicity Identified,United States,White extremists,"James Harris Jackson, a white extremist, claimed responsibility for the incident and stated that he targeted Caughman in order to persuade white women against interracial relationships.",1.0,1.0,1.0,Melee,,A sword with an 18-inch blade was used in the attack.,1.0,0.0,0.0,,
-160242859,2017,3,22,217,United States,North America,North Dakota,Nome,46.679696,-97.810146,"03/22/2017: Assailants set fire to Zion Lutheran Church in Nome, North Dakota, United States. There were no reported casualties in the attack. No group claimed responsibility for the incident; however, sources noted that the church was recently purchased by a white supremacist, identified as Craig Cobb.",1,1,1,0.0,1.0,0.0,Facility/Infrastructure Attack,,,Private Citizens & Property,House/Apartment/Residence,United States,Unknown,"The specific motive is unknown; however, sources noted that the church was recently purchased by a white supremacist.",-99.0,0.0,0.0,Incendiary,,,0.0,0.0,0.0,Minor (likely < $1 million),
-159402881,2017,4,6,217,United States,North America,North Carolina,Charlotte,35.203377,-80.74943,"04/06/2017: An assailant set fire to a Bhutanese-owned business on Albemarle Road in Charlotte, North Carolina, United States. There were no reported casualties in the attack. Curtis Flournoy claimed responsibility in a note left at the scene and stated that he was opposed to businesses owned by refugees and immigrants. The note was signed ""White America.""",1,1,1,0.0,1.0,0.0,Facility/Infrastructure Attack,,,Private Citizens & Property,Race/Ethnicity Identified,United States,Unknown,"An unaffiliated individual, identified as Curtis Flournoy, claimed responsibility for the incident in a note left at the scene and stated that he was opposed to businesses owned by refugees and immigrants. The note was signed ""White America.""",1.0,1.0,1.0,Incendiary,,,0.0,0.0,0.0,Minor (likely < $1 million),
-159332889,2017,4,13,217,United States,North America,California,Fresno,36.795142,-119.791034,"04/13/2017: An assailant shot and killed Carl Williams, a security guard, at a Motel 6 in Fresno, California, United States. Kori Ali Muhammad, an anti-white extremist, claimed responsibility for the incident and stated that he targeted the victim because Williams had disrespected him. Sources also noted that Muhammad had a history of anti-white and anti-government social media posts.",1,1,1,1.0,1.0,0.0,Armed Assault,,,Business,Hotel/Resort,United States,Anti-White extremists,"An anti-white extremist, identified as Kori Ali Muhammad, claimed responsibility for the incident and stated that he targeted Carl Williams because he felt disrespected by him.",1.0,1.0,1.0,Firearms,,,1.0,0.0,0.0,,
-159282852,2017,4,18,217,United States,North America,California,Fresno,36.747696,-119.798892,"04/18/2017: An assailant opened fire on civilians in Fresno, California, United States. The assailant first fired on a Pacific Gas and Electric (PG&E) energy truck, killing Zackary David Randalls. He then fired on another vehicle but stopped after realizing the passengers were Hispanic and instead shot Mark James Gassett. Finally, the assailant fired on David Martin Jackson at a nearby bus stop. Three people were killed in the one-minute shooting spree before the assailant surrendered to police. Kori Ali Muhammad, an anti-white extremist, claimed responsibility for the attack and stated that he targeted the victims because he wanted to kill ""as many white males as possible."" Sources also noted that Muhammad had a history of anti-white and anti-government social media posts.",1,1,1,0.0,1.0,0.0,Armed Assault,,,Private Citizens & Property,Race/Ethnicity Identified,United States,Anti-White extremists,"An anti-white extremist, identified as Kori Ali Muhammad, claimed responsibility for the incident and stated that he targeted the victims because he wanted to kill ""as many white males as possible,"" who he believed ""were responsible for keeping the black people down.""",1.0,1.0,1.0,Firearms,,,3.0,0.0,0.0,Minor (likely < $1 million),
-159222880,2017,4,24,217,United States,North America,California,Vacaville,38.354542,-121.989794,"04/24/2017: Assailants set fire to a vehicle in Vacaville, California, United States. There were no reported casualties, but the vehicle was damaged in the attack. In a note left at the scene, the assailants spray-painted ""KKK"" (Ku Klux Klan) on the targeted vehicle.",1,1,1,0.0,1.0,0.0,Facility/Infrastructure Attack,,,Private Citizens & Property,Vehicles/Transportation,United States,Ku Klux Klan,"In a note left at the scene, assailants spray-painted ""KKK"" on the targeted vehicle.",-99.0,0.0,1.0,Incendiary,,,0.0,0.0,0.0,Minor (likely < $1 million),
-159192884,2017,4,27,217,United States,North America,California,Fairfield,38.280951,-122.034046,"04/27/2017: An assailant threw a firebomb into an apartment in Fairfield, California, United States. There were no reported casualties in the incident. This was one of three related firebomb attacks overnight. Matthew Scott Jones was arrested and confessed to carrying out the attacks in order to ""make a statement."" Sources also noted that, prior to the attack, Jones allegedly had shouted racial slurs at the building's residents, who were African American.",1,0,1,1.0,1.0,0.0,Armed Assault,,,Private Citizens & Property,House/Apartment/Residence,United States,Unknown,"An unaffiliated individual, identified as Matthew Scott Jones, claimed responsibility for the incident and stated that he carried out the attack in order to ""make a statement."" Sources also noted that prior to the attack, Jones allegedly shouted racial slurs at the building's residents, who were African American.",1.0,1.0,1.0,Incendiary,,A firebomb composed of two propane cylinders and a gallon container of gas was used in the attack.,0.0,0.0,0.0,Minor (likely < $1 million),
-159192883,2017,4,27,217,United States,North America,California,Fairfield,38.283344,-122.03495,"04/27/2017: An assailant threw a firebomb at an unoccupied vehicle in Fairfield, California, United States. There were no reported casualties in the incident. This was one of three related firebomb attacks overnight. Matthew Scott Jones was arrested and confessed to carrying out the attacks in order to ""make a statement.""",1,1,1,1.0,1.0,0.0,Facility/Infrastructure Attack,,,Private Citizens & Property,Vehicles/Transportation,United States,Unknown,"An unaffiliated individual, identified as Matthew Scott Jones, claimed responsibility for the incident and stated that he carried out the attack in order to ""make a statement.""",1.0,1.0,1.0,Incendiary,,A firebomb composed of two propane cylinders and a gallon container of gas was used in the attack.,0.0,0.0,0.0,Minor (likely < $1 million),
-159182889,2017,4,28,217,United States,North America,Kentucky,Lexington,38.052751,-84.493642,"04/28/2017: An assailant equipped with a machete entered a cafe at Transylvania University in Lexington, Kentucky, United States. The assailant asked customers about their political affiliation and stabbed civilians who identified as Democrats, injuring two people. The assailant also suffered self-inflicted injuries before being arrested by police. Mitchell Adkins, a right-wing extremist, claimed responsibility for the incident and had previously written an online post complaining of discrimination against conservatives on college campuses.",1,1,1,0.0,1.0,0.0,Armed Assault,,,Private Citizens & Property,Political Party Member/Rally,United States,Right-wing extremists,"An unaffiliated individual, identified as Mitchell Adkins, claimed responsibility for the incident, asking individuals if they were a Democrat or a Republican, targeting those who answered Democrat.",1.0,1.0,1.0,Melee,,A machete and knives were used in the attack.,0.0,0.0,3.0,,
-159182883,2017,4,28,217,United States,North America,California,Fairfield,38.252277,-122.044673,"04/28/2017: An assailant threw a firebomb at the lobby of the Fairfield Police Department in Fairfield, California, United States. There were no reported casualties, but the police station was damaged in the incident. This was one of three related firebomb attacks overnight. Matthew Scott Jones was arrested and confessed to carrying out the attacks in order to ""make a statement.""",1,1,1,1.0,1.0,0.0,Facility/Infrastructure Attack,,,Police,"Police Building (headquarters, station, school)",United States,Unknown,"An unaffiliated individual, identified as Matthew Scott Jones, claimed responsibility for the incident and stated that he carried out the attack in order to ""make a statement.""",1.0,1.0,1.0,Incendiary,,A firebomb composed of two propane cylinders and a gallon container of gas was used in the attack.,0.0,0.0,0.0,Minor (likely < $1 million),
-158272855,2017,5,19,217,United States,North America,Florida,Tampa,28.088985,-82.403127,"05/19/2017: An assailant, identified as Devon Arthurs, shot and killed Jeremy Himmelman and Andrew Oneschuk at their shared apartment in Tampa, Florida, United States. This was one of two attacks by Arthurs on the same day. Arthurs claimed responsibility for the incident and stated that he had targeted Himmelman and Oneschuk, who were two of his roommates as well as alleged neo-Nazis and fellow members of the Atomwaffen Division, because they had ""disrespected"" his conversion to Islam in the year prior to the attack. He also made statements that he was frustrated about global anti-Muslim sentiment and United States airstrikes in the Muslim world.",1,1,1,0.0,1.0,0.0,Armed Assault,,,Private Citizens & Property,Named Civilian,United States,Muslim extremists,"An unaffiliated individual, identified as Devon Arthurs, claimed responsibility for the incident and stated that he targeted his roommates because they had ""disrespected"" his conversion to Islam. He also stated that he was frustrated about global anti-Muslim sentiment and United States (US) airstrikes within the Muslim world.",1.0,1.0,1.0,Firearms,,A rifle was used in the attack.,2.0,0.0,0.0,,
-158272854,2017,5,19,217,United States,North America,Florida,Tampa,28.088081,-82.404704,"05/19/2017: An assailant, identified as Devon Arthurs, held three people hostage at Green Planet Smoke Shop in Tampa, Florida, United States. Police arrived at the shop several minutes later, after which one hostage escaped and Arthurs released the remaining two hostages unharmed. This was one of two attacks by Arthurs on the same day. Arthurs, who had previously identified as a member of the neo-Nazi Atomwaffen Division, claimed responsibility for the incident and made statements during the attack that he was frustrated about global anti-Muslim sentiment and United States airstrikes in the Muslim world.",1,1,1,0.0,1.0,0.0,Hostage Taking (Barricade Incident),,,Business,Retail/Grocery/Bakery,United States,Muslim extremists,"An unaffiliated individual, identified as Devon Arthurs, claimed responsibility for the incident and stated that he was frustrated about global anti-Muslim sentiment and United States (US) airstrikes within the Muslim world.",1.0,1.0,1.0,Firearms,,A black semiautomatic pistol was used in the attack.,0.0,0.0,0.0,,3.0
-158262869,2017,5,20,217,United States,North America,Maryland,College Park,38.988155,-76.931633,"05/20/2017: An assailant stabbed Richard Collins III on the University of Maryland campus in College Park, Maryland, United States. Collins, an African American student from Bowie State University, was killed in the attack. No group claimed responsibility for the incident; however, authorities arrested Sean Urbanski, an unaffiliated individual, in connection with the attack. Sources also noted that Urbanski was a member of a Facebook group called ""Alt-Reich Nation.""",1,1,1,1.0,1.0,0.0,Armed Assault,,,Private Citizens & Property,Race/Ethnicity Identified,United States,Unknown,"The specific motive is unknown; however, sources noted that the assailant, Sean Urbanski, was a member of a Facebook group called ""Alt-Reich Nation.""",1.0,1.0,0.0,Melee,,,1.0,0.0,0.0,,
-158202886,2017,5,26,217,United States,North America,Oregon,Portland,45.533293,-122.65353,"05/26/2017: An assailant armed with a knife shouted racial and religious slurs at two passengers on a MAX light rail train in Portland, Oregon, United States. The assailant then stabbed three passengers who attempted to intervene. Rick John Best and Taliesin Myrddin Namkai-Meche were killed and Micah David-Cole Fletcher was injured in the attack. Jeremy Joseph Christian, an anti-Muslim extremist, claimed responsibility for the incident and stated that ""Muslims should die"" during the attack.",1,1,1,0.0,1.0,0.0,Armed Assault,,,Private Citizens & Property,Religion Identified,United States,Anti-Muslim extremists,"An unaffiliated individual, identified as Jeremy Joseph Christian, claimed responsibility for the incident and stated that ""Muslims should die"" during the attack.",1.0,1.0,1.0,Melee,,A knife was used in the attack.,2.0,0.0,1.0,,
-158202876,2017,5,26,217,United States,North America,New York,New York City,40.697132,-73.931351,"05/26/2017: Two assailants shouted homophobic slurs and assaulted a woman with an umbrella outside a store in Brooklyn, New York, United States. The woman suffered numerous cuts to her face during the incident. Police later arrested Alex Santiago in connection with the attack, but have not identified the second assailant.",1,1,1,0.0,1.0,0.0,Armed Assault,,,Private Citizens & Property,Unnamed Civilian/Unspecified,United States,Anti-LGBT extremists,"The specific motive is unknown; however, sources noted that the assailants yelled homophobic slurs during the attack.",2.0,1.0,0.0,Melee,,A sharp-edged point of an umbrella was used in the attack.,0.0,0.0,1.0,,
-158172847,2017,5,29,217,United States,North America,Kentucky,Lexington,38.041374,-84.488595,"05/29/2017: An assailant fired at the Lexington Herald-Leader newspaper office in Lexington, Kentucky, United States. There were no reported injuries, but windows were damaged in the gunfire. No group claimed responsibility for the incident.",0,1,1,1.0,1.0,0.0,Armed Assault,,,Journalists & Media,Newspaper Journalist/Staff/Facility,United States,Unknown,,-99.0,0.0,0.0,Firearms,,A firearm loaded with small-caliber ammunition was used in the attack.,0.0,0.0,0.0,Minor (likely < $1 million),
-158162859,2017,5,30,217,United States,North America,New York,New York City,40.697132,-73.931351,"05/30/2017: An assailant fired a pellet gun at a civilian outside the Masjid Ebun Abass mosque in the Bronx, New York, United States. The civilian, Sailum Camarra, was injured, and the mosque was damaged in the attack. No group claimed responsibility; however, police identified the incident as one of three similar attacks targeting the mosque over several weeks.",1,1,1,0.0,1.0,0.0,Armed Assault,,,Religious Figures/Institutions,Place of Worship,United States,Anti-Muslim extremists,,-99.0,0.0,0.0,Firearms,,A pellet gun was used in the attack.,0.0,0.0,1.0,Minor (likely < $1 million),
-157382865,2017,6,8,217,United States,North America,New York,New York City,40.697132,-73.931351,"06/08/2017: An assailant fired a pellet gun at the Masjid Ebun Abass mosque in the Bronx, New York, United States. There were no reported casualties in the attack. No group claimed responsibility; however, police identified the incident as one of three similar attacks targeting the mosque over several weeks.",1,1,1,0.0,1.0,0.0,Armed Assault,,,Religious Figures/Institutions,Place of Worship,United States,Anti-Muslim extremists,,-99.0,0.0,0.0,Firearms,,A pellet gun was used in the attack.,0.0,0.0,0.0,Minor (likely < $1 million),
-157372863,2017,6,9,217,United States,North America,New York,New York City,40.697132,-73.931351,"06/09/2017: An assailant fired a pellet gun at a civilian outside the Masjid Ebun Abass mosque in the Bronx, New York, United States. There were no reported casualties, but the mosque's windows were damaged in the attack. No group claimed responsibility; however, police identified the incident as one of three similar attacks targeting the mosque over several weeks.",1,1,1,0.0,1.0,0.0,Armed Assault,,,Religious Figures/Institutions,Place of Worship,United States,Anti-Muslim extremists,,-99.0,0.0,0.0,Firearms,,A pellet gun was used in the attack.,0.0,0.0,0.0,Minor (likely < $1 million),
-157322883,2017,6,14,217,United States,North America,Virginia,Alexandria,38.821582,-77.053422,"06/14/2017: An assailant opened fire on a Congressional Republican baseball practice at Eugene Simpson Stadium Park in Alexandria, Virginia, United States. At least six people, including House Majority Whip Steve Scalise and Representative Roger Williams, were injured before the assailant was shot and killed by Capitol Police officers. Sources identified the assailant as James T. Hodgkinson, who had previously criticized the policies of the Republican Party and President Donald Trump.",1,1,1,0.0,0.0,0.0,Assassination,,,Government (General),Politician or Political Party Movement/Meeting/Rally,United States,Anti-Republican extremists,"The specific motive is unknown; however, sources noted that James T. Hodgkinson was critical of President Donald Trump and Republicans. Sources also noted that he had written letters to a local newspaper ""blaming Republicans for what he considered an agenda favoring the wealthy.""",1.0,0.0,0.0,Firearms,Firearms,A 7.62-mm SKS semiautomatic rifle and a 9-mm handgun were used in the attack.,1.0,1.0,6.0,,
-157252890,2017,6,21,217,United States,North America,Michigan,Flint,42.973383,-83.738903,"06/21/2017: An assailant armed with a knife stabbed Lieutenant Jeff Neville at Bishop International Airport in Flint, Michigan, United States. Neville, a police officer, was injured in the attack. Amor Ftouhi claimed responsibility for the incident and made statements about deaths caused by the United States government in Syria, Iraq, and Afghanistan during the attack.",1,1,1,0.0,1.0,0.0,Armed Assault,,,Police,Police Security Forces/Officers,United States,Anti-Government extremists,"An unaffiliated individual, identified as Amor Ftouhi, claimed responsibility for the incident and made statements about deaths in Syria, Iraq, and Afghanistan while carrying out the attack. Sources also noted that Ftouhi opposed the United States.",1.0,1.0,1.0,Melee,,A 12-inch knife was used in the attack.,0.0,0.0,1.0,,
-157202893,2017,6,26,217,United States,North America,New York,New York City,40.697132,-73.931351,"06/26/2017: An assailant set fire to a bus decorated with Jewish iconography in East Flatbush area, New York City, New York, United States. There were no reported casualties. No group claimed responsibility for the incident; however, police officials were investigating the incident as an anti-Semitic attack.",1,1,1,0.0,1.0,0.0,Facility/Infrastructure Attack,,,Private Citizens & Property,Vehicles/Transportation,United States,Anti-Semitic extremists,"The specific motive is unknown; however, sources noted that the attack was anti-Semitic.",-99.0,0.0,0.0,Incendiary,,,0.0,0.0,0.0,Minor (likely < $1 million),
-156412864,2017,7,5,217,United States,North America,New York,Bronx,40.697132,-73.931351,"07/05/2017: At approximately 12:30 a.m., an assailant shot and killed New York Police Department (NYPD) Officer Miosotis Familia in the Bronx, New York, United States. NYPD officers pursued the perpetrator, identified as Alexander Bonds, who was killed in the shootout that followed. A bystander was also wounded by a stray bullet fired by police. No group claimed responsibility for the incident; however, sources stated that Bonds had previously expressed anti-police sentiment on social media.",1,1,1,1.0,1.0,0.0,Armed Assault,,,Police,Police Security Forces/Officers,United States,Anti-Police extremists,"The specific motive is unknown; however, sources noted that Alexander Bonds had previously conveyed anti-police sentiment on social media.",1.0,0.0,0.0,Firearms,,A Ruger .38 revolver was used in the attack.,2.0,0.0,1.0,,
-156392886,2017,7,7,217,United States,North America,Texas,Dallas,32.762122,-96.774511,"07/07/2017: Assailants set fire to Abounding Prosperity, Inc., an African American Lesbian-Gay-Bi-Trans (LGBT) community center in Dallas, Texas, United States. There were no reported casualties in the attack. No group claimed responsibility; however, sources attributed the incident to anti-LGBT extremists.",1,1,1,0.0,1.0,0.0,Facility/Infrastructure Attack,,,Private Citizens & Property,Labor Union Related,United States,Anti-LGBT extremists,,-99.0,0.0,0.0,Incendiary,,,0.0,0.0,0.0,Minor (likely < $1 million),
-156382883,2017,7,8,217,United States,North America,Indiana,Columbus,39.117274,-86.043045,"07/08/2017: Assailants vandalized and set fire to the Ohio Chapel United Methodist Church near Columbus, Indiana, United States. There were no reported casualties in the attack. No group claimed responsibility for the incident.",1,1,1,0.0,1.0,0.0,Facility/Infrastructure Attack,,,Religious Figures/Institutions,Place of Worship,United States,Unknown,,-99.0,0.0,0.0,Incendiary,,,0.0,0.0,0.0,Minor (likely < $1 million),
-156372868,2017,7,9,217,United States,North America,Pennsylvania,Campbelltown,40.256711,-76.581162,"07/09/2017: Assailants set fire to a Energy Transfer Partners, L.P. portable toilet near Chestnut Hill and Kreider Roads in Campbelltown, Pennsylvania, United States. There were no reported casualties in the attack. No group claimed responsibility; however, sources suspected the incident was carried out by environmentalists.",1,1,1,0.0,1.0,0.0,Facility/Infrastructure Attack,,,Business,Construction,United States,Environmentalists,,-99.0,0.0,0.0,Incendiary,,,0.0,0.0,0.0,Minor (likely < $1 million),
-156332851,2017,7,13,217,United States,North America,Pennsylvania,Campbelltown,40.256896,-76.581134,"07/13/2017: Assailants set fire to a portable toilet at a Sunoco pipeline construction site in Campbelltown, Pennsylvania, United States. There were no reported casualties in the attack. No group claimed responsibility for the incident; however, sources suspected the involvement of environmental extremists in the attack.",1,1,1,0.0,1.0,0.0,Facility/Infrastructure Attack,,,Business,Construction,United States,Environmentalists,,-99.0,0.0,0.0,Incendiary,,,0.0,0.0,0.0,Minor (likely < $1 million),
-155422870,2017,8,4,217,United States,North America,Missouri,Kansas City,39.176086,-94.574127,"08/04/2017: A package delivered to an Internal Revenue Service (IRS) office made employees sick in Kansas City, Missouri, United States. At least 10 people reported being ill, which included vomiting and nausea. No group claimed responsibility for the attack.",1,1,1,0.0,1.0,0.0,Unarmed Assault,,,Government (General),"Government Personnel (excluding police, military)",United States,Unknown,,-99.0,0.0,0.0,Chemical,,"An unidentified toxic substance, which smelled like ammonia, was used in the attack.",0.0,0.0,10.0,,
-155412907,2017,8,5,217,United States,North America,Minnesota,Bloomington,44.854703,-93.264384,"08/05/2017: An assailant threw an explosive device into Dar Al-Farooq Mosque in Bloomington, Minnesota, United States. There were no reported casualties but an office in the mosque was damaged in the blast. No group claimed responsibility; however, sources attributed the attack to the White Rabbit Three Percent Illinois Patriot Freedom Fighters Militia.",1,1,1,0.0,1.0,0.0,Bombing/Explosion,,,Religious Figures/Institutions,Place of Worship,United States,White Rabbit Three Percent Illinois Patriot Freedom Fighters Militia,,3.0,3.0,0.0,Explosives,,A PVC pipe bomb containing black powder and diesel fuel was used in the attack.,0.0,0.0,0.0,Minor (likely < $1 million),
-155342860,2017,8,12,217,United States,North America,Virginia,Charlottesville,38.029474,-78.479616,"08/12/2017: An assailant drove his vehicle into a crowd of counter-protesters at the intersection of 4th Street and Water Street in Charlottesville, Virginia, United States. One person, identified as Heather D. Heyer, was killed and 19 people were injured in the assault. No group claimed responsibility for the incident; however, police arrested James Alex Fields Jr., a neo-Nazi extremist, in connection with the attack.",1,1,1,0.0,1.0,0.0,Unarmed Assault,,,Private Citizens & Property,Protester,United States,Neo-Nazi extremists,,1.0,1.0,0.0,"Vehicle (not to include vehicle-borne explosives, i.e., car or truck bombs)",,A silver Dodge Challenger was used in the attack.,1.0,0.0,19.0,Minor (likely < $1 million),
-155272886,2017,8,19,217,United States,North America,Texas,Houston,29.813822,-95.365295,"08/19/2017: An assailant was arrested while attempting to plant an explosive device at the Dick Dowling Confederate monument in Houston, Texas, United States. There were no reported casualties. No group claimed responsibility; however, sources identified the assailant as Andrew Cecil Schneck.",1,1,1,0.0,0.0,0.0,Bombing/Explosion,,,Private Citizens & Property,Memorial/Cemetery/Monument,United States,Unknown,"The specific motive is unknown; however, sources noted that the attempted attack occurred amid heated discussions over removing Confederate monuments.",1.0,1.0,0.0,Explosives,,A homemade explosive device was used in the attack.,0.0,0.0,0.0,,
-154352868,2017,9,11,217,United States,North America,Louisiana,Baton Rouge,30.451468,-91.187147,"09/11/2017: An assailant fired shots through the front door and living room of a home in Baton Rouge, Louisiana, United States. Two men were home at the time of the attack, but no one was injured. Kenneth James Gleason, a white extremist, was arrested and charged in connection with this attack and two similar incidents in Baton Rouge in the same week. Police believe the attacks were racially motivated. He pleaded not guilty in December 2017.",1,1,1,0.0,1.0,0.0,Armed Assault,,,Private Citizens & Property,Race/Ethnicity Identified,United States,White extremists,"The specific motive is unknown; however, sources suspected that the attack was racially motivated.",1.0,1.0,0.0,Firearms,,,0.0,0.0,0.0,Minor (likely < $1 million),
-154342881,2017,9,12,217,United States,North America,Louisiana,Baton Rouge,30.449998,-91.154152,"09/12/2017: An assailant shot and killed Bruce Cofield, 59, on the 3400 block of Florida Street in Baton Rouge, Louisiana, United States. The perpetrator first fired from inside a car, and then exited the vehicle and continued to fire. Kenneth James Gleason, a white extremist, was arrested and charged in connection with this attack and two similar incidents in Baton Rouge in the same week. Police believe the attacks were racially motivated. He pleaded not guilty in December 2017.",1,1,1,0.0,1.0,0.0,Armed Assault,,,Private Citizens & Property,Race/Ethnicity Identified,United States,White extremists,"The specific motive is unknown; however, sources suspected that the attack was racially motivated.",1.0,1.0,0.0,Firearms,,,1.0,0.0,0.0,,
-154322871,2017,9,14,217,United States,North America,Louisiana,Baton Rouge,30.420015,-91.184493,"09/14/2017: An assailant shot and killed Donald Smart 49, on the 3000 block of Alaska Street in Baton Rouge, Louisiana, United States. The perpetrator first fired from inside a car, and then exited the vehicle and continued to fire. Kenneth James Gleason, a white extremist, was arrested and charged in connection with this attack and two similar incidents in Baton Rouge in the same week. Police believe the attacks were racially motivated. He pleaded not guilty in December 2017.",1,1,1,0.0,1.0,0.0,Armed Assault,,,Private Citizens & Property,Race/Ethnicity Identified,United States,White extremists,"The specific motive is unknown; however, sources suspected that the attack was racially motivated.",1.0,1.0,0.0,Firearms,,,1.0,0.0,0.0,,
-154222894,2017,9,24,217,United States,North America,Tennessee,Antioch,36.046771,-86.583081,"09/24/2017: An assailant opened fire on Burnette Chapel Church of Christ in Antioch, Tennessee, United States. One person was killed and eight others, including the assailant, were wounded in the attack. An unaffiliated individual, identified as Emanuel Kidega Samson, claimed responsibility for the incident and stated that the attack was carried out in revenge for the June 18, 2015 attack on a church in Charleston, South Carolina by Dylann Roof.",1,1,1,0.0,1.0,0.0,Armed Assault,,,Religious Figures/Institutions,Place of Worship,United States,Unknown,"An unaffiliated individual, identified as Emanuel Kidega Samson, claimed responsibility for the incident and stated that the attack was carried out in revenge for the June 18, 2015 attack on a church in Charleston, South Carolina by Dylann Roof.",1.0,1.0,1.0,Firearms,,A pistol was used in the attack.,1.0,0.0,8.0,,
-153452894,2017,10,1,217,United States,North America,Nevada,Las Vegas,36.082645,-115.135925,"10/01/2017: An assailant opened fire from the Mandalay Bay Hotel on the Route 91 Harvest Festival concert in Las Vegas, Nevada, United States. At least 58 people were killed and 851 people were injured in the attack. The assailant shot and killed himself before police reached him. No group claimed responsibility for the incident; however, authorities identified the assailant as Stephen Paddock, an anti-government extremist. Witnesses overheard Paddock espousing anger over the 1990s standoffs in Waco, Texas and Ruby Ridge, Idaho. Paddock also expressed concern over the US government ""confiscating guns.""",1,1,1,0.0,1.0,0.0,Armed Assault,,,Business,Entertainment/Cultural/Stadium/Casino,United States,Anti-Government extremists,,1.0,0.0,0.0,Firearms,,AR-15 semiautomatic rifles equipped with bump stocks were used in the attack.,59.0,1.0,851.0,Unknown,
-153402899,2017,10,6,217,United States,North America,North Carolina,Fletcher,35.437653,-82.537256,"10/06/2017: An explosive device was discovered and defused at the Asheville Regional Airport baggage claim in Fletcher, North Carolina, United States. Michael Christopher Estes claimed responsibility for the attack and stated that he wanted to ""fight a war on U.S. soil.""",1,1,1,0.0,0.0,0.0,Bombing/Explosion,,,Airports & Aircraft,Airport,United States,Unknown,"An unaffiliated individual, identified as Michael Christopher Estes, claimed responsibility for the incident and stated that he wanted to ""fight a war on U.S. soil.""",1.0,1.0,1.0,Explosives,,"A timed homemade explosive device containing ammonium nitrate, shotgun ammunition, oil, and nails and connected to an alarm clock was used in the attack.",0.0,0.0,0.0,,
-153382884,2017,10,8,217,United States,North America,Washington,Spokane,47.679135,-117.402209,"10/08/2017: Around 11:00 p.m.m two assailants shouting racial slurs and white supremacist statements attacked a black man in Spokane, Washington, United States. The assailants attacked Norris Cooley, pointed a handgun at him, and fired at least six shots into Cooley's occupied home. The two unaffiliated individuals, identified as Jason Edward Cooper and Donald Lucas Prichard, white extremists, claimed responsibility for the incident and stated racial slurs during the attack.",1,1,1,0.0,1.0,0.0,Armed Assault,,,Private Citizens & Property,Race/Ethnicity Identified,United States,White extremists,"Two unaffiliated individuals, identified as Jason Edward Cooper; Donald Lucas Prichard, claimed responsibility for the incident and stated racial slurs during the attack.",2.0,2.0,1.0,Firearms,Melee,A pistol was used in the attack.,0.0,0.0,1.0,Minor (likely < $1 million),
-153242877,2017,10,22,217,United States,North America,Nebraska,Oxford,40.252274,-99.635072,"10/22/2017: An assailant breached a secure area of an Amtrak passenger train, travelling from California to Missouri and triggered an emergency stop in Oxford, Nebraska, United States. There were no reported casualties, and the assailant, identified as Taylor Michael Wilson, was detained by Amtrak personnel. No group claimed responsibility for the incident; however, authorities stated that Wilson possessed neo-Nazi literature and had previously expressed an interest in ""killing black people.""",1,1,1,0.0,0.0,0.0,Armed Assault,,,Transportation,Train/Train Tracks/Trolley,United States,White extremists,"The specific motive is unknown; however, sources noted that Taylor Michael Wilson wanted to kill people of color.",1.0,1.0,0.0,Firearms,Melee,A .38-caliber handgun and a knife were used in the attack.,0.0,0.0,0.0,,
-153182875,2017,10,28,217,United States,North America,Puerto Rico,San Juan,18.386932,-66.061127,"10/28/2017: Assailants threw incendiary devices into Circo Bar, a gay club, in Santurce neighborhood, San Juan, Puerto Rico. There were no reported casualties in the attack. No group claimed responsibility; however, sources identified the assailants as anti-LGBT extremists.",0,1,1,1.0,1.0,0.0,Armed Assault,,,Business,Restaurant/Bar/CafÃ©,United States,Anti-LGBT extremists,,-99.0,0.0,0.0,Incendiary,,Petrol bombs were used in the attack.,0.0,0.0,0.0,Minor (likely < $1 million),
-153152895,2017,10,31,217,United States,North America,New York,New York City,40.697132,-73.931351,"10/31/2017: An assailant driving a Home Depot rental truck entered a bike path in an attempt to run over civilians on the West Side Highway in Lower Manhattan, New York City, United States. Following the initial attack, the assailant exited the vehicle and was shot by a police officer after displaying imitation firearms. At least eight people, including two citizens from the United States, five Argentinian tourists, and one Belgian tourist, were killed and 13 other people, including the assailant, were injured in the attack. The Islamic State of Iraq and the Levant (ISIL) claimed that the assailant, identified as Sayfullo Habibullaevic Saipov, was ""one of the caliphate soldiers;"" however, sources doubted the veracity of this claim. Authorities also recovered a note from the vehicle in which Saipov pledged allegiance to ISIL.",1,1,1,0.0,1.0,0.0,Unarmed Assault,,,Tourists,Tourist,Argentina,Jihadi-inspired extremists,"An unaffiliated individual, identified as Sayfullo Habibullaevic Saipov, claimed responsibility for the incident and pledged allegiance to the Islamic State of Iraq and the Levant (ISIL).",1.0,1.0,1.0,"Vehicle (not to include vehicle-borne explosives, i.e., car or truck bombs)",Fake Weapons,A rental pickup truck and replica firearms were used in the attack.,8.0,0.0,13.0,Minor (likely < $1 million),
-153152870,2017,10,31,217,United States,North America,Louisiana,Richland Parish,32.419801,-91.763649,"10/31/2017: An assailant set fire to the predominantly black St Paul Missionary Baptist Church in Richland Parish, Louisiana, United States. There were no reported casualties in the attack. No group claimed responsibility; however, sources identified the assailant as a white extremist.",1,1,1,0.0,1.0,0.0,Facility/Infrastructure Attack,,,Religious Figures/Institutions,Place of Worship,United States,White extremists,,1.0,1.0,0.0,Incendiary,,Gasoline was used in the attack.,0.0,0.0,0.0,Minor (likely < $1 million),
-152392858,2017,11,7,217,United States,North America,Illinois,Champaign,40.087687,-88.246841,"11/07/2017: Assailants broke a window and put a bomb on the window sill at Women's Health Practice at 2125 South Neil Street, Champaign, Illinois, United States. The device failed to detonate and was defuse by authorities. No group claimed responsibility for the incident; however, sources attributed the attempted attack to the White Rabbit Three Percent Illinois Patriot Freedom Fighters Militia.",1,1,1,0.0,0.0,0.0,Bombing/Explosion,,,Abortion Related,Clinics,United States,White Rabbit Three Percent Illinois Patriot Freedom Fighters Militia,,3.0,3.0,0.0,Explosives,,A PVC pipe bomb containing thermite and a magnesium strip was used in the attack.,0.0,0.0,0.0,Minor (likely < $1 million),
-152332870,2017,11,13,217,United States,North America,North Carolina,Vale,35.630842,-81.43925,"11/13/2017: Assailants set fire to the Providence Road Baptist Church in Vale, North Carolina, United States. There were no reported casualties in the fire. Pro-LGBT Rights extremists claimed responsibility for the incident and wrote ""anti-gay hate group"" on the targeted church.",1,1,1,0.0,1.0,0.0,Facility/Infrastructure Attack,,,Religious Figures/Institutions,Place of Worship,United States,Pro-LGBT Rights extremists,"Pro-LGBT Rights extremists claimed responsibility for the incident and wrote ""anti-gay hate group"" on the targeted church.",-99.0,0.0,1.0,Incendiary,,,0.0,0.0,0.0,Minor (likely < $1 million),
-151392875,2017,12,7,217,United States,North America,New Mexico,Aztec,36.820666,-107.990818,"12/07/2017: An assailant, identified as William Atchison, opened fire on students at Aztec High School in Aztec, New Mexico, United States. The assailant shot and killed two students and fired multiple shots at a locked classroom before shooting and killing himself. Statements Atchinson made in his suicide note and posted online reflect a fixation on mass shootings, as well as a misogynist and white supremacist narrative referenced in message forums where participants self-identify as ""involuntarily celibate"" (incel).",1,1,1,0.0,1.0,1.0,Armed Assault,,,Educational Institution,School/University/Educational Building,United States,White extremists,"An unaffiliated individual, identified as William Atchison, claimed responsibility for the incident and made statements reflecting a fixation on mass shootings, as well as a misogynist and white supremacist narrative referenced in message forums where participants self-identify as ""involuntarily celibate.""",1.0,0.0,1.0,Firearms,,A 9-mm Glock handgun was used in the attack.,3.0,1.0,0.0,Minor (likely < $1 million),
-151352911,2017,12,11,217,United States,North America,New York,New York City,40.697132,-73.931351,"12/11/2017: A suicide bomber detonated explosives at Port Authority Bus Terminal between Seventh and Eighth Avenue in Manhatta, New York City, New York, United States. In addition to the assailant, three civilians were injured in the blast. Akayed Ullah, a jihadi-inspired extremist, claimed responsibility for the incident and stated ""They've been bombing in my country and I wanted to do damage here,"" and ""I did it for the Islamic State.""",1,1,1,0.0,1.0,1.0,Bombing/Explosion,,,Transportation,Bus Station/Stop,United States,Jihadi-inspired extremists,"An unaffiliated individual, identified as Akayed Ullah, claimed responsibility for the incident and stated ""They've been bombing in my country and I wanted to do damage here,"" and ""I did it for the Islamic State.""",1.0,1.0,1.0,Explosives,,"A crude pipe bomb consisting of screws,  Christmas light wires, and a nine-volt battery was used in the attack.",0.0,0.0,4.0,,
-151242890,2017,12,22,217,United States,North America,Pennsylvania,Harrisburg,40.262772,-76.881107,"12/22/2017: An assailant opened fire on a Pennsylvania State Capitol Police vehicle at the intersection of Fourth Street and Walnut Street near the Capitol Building in Harrisburg, Pennsylvania, United States. There were no reported casualties in the assault. This was one of two attacks targeting police officers in Harrisburg on the same day. No group claimed responsibility; however, authorities identified the assailant as Ahmed Aminamin El-Mofty.",0,1,1,1.0,1.0,0.0,Armed Assault,,,Police,Police Patrol (including vehicles and convoys),United States,Unknown,,1.0,0.0,0.0,Firearms,,Two 9-mm handguns were used in the attack.,0.0,0.0,0.0,Minor (likely < $1 million),
-151242889,2017,12,22,217,United States,North America,Pennsylvania,Harrisburg,40.261864,-76.880913,"12/22/2017: An assailant opened fire on a Pennsylvania State Capitol Police vehicle near Strawberry Square in Harrisburg, Pennsylvania, United States. At least one officer was injured in the assault. Officers pursued the assailant to the intersection of 17th Street and Mulberry Street, where he was shot and killed. This was one of two attacks targeting police officers in Harrisburg on the same day. No group claimed responsibility; however, authorities identified the assailant as Ahmed Aminamin El-Mofty.",0,1,1,1.0,1.0,0.0,Armed Assault,,,Police,Police Patrol (including vehicles and convoys),United States,Unknown,,1.0,0.0,0.0,Firearms,,Two 9-mm handguns were used in the attack.,1.0,1.0,1.0,Minor (likely < $1 million),
